<?xml version="1.0" encoding="UTF-8"?>
<kml xmlns="http://www.opengis.net/kml/2.2">
  <Document>
    <name>Ruta RC-09 Kítsian Jan: Colónia Bugambilias - Fracc. El Rosario</name>
    <description/>
    <Style id="icon-1532-0288D1-normal">
      <IconStyle>
        <color>ffd18802</color>
        <scale>1</scale>
        <Icon>
          <href>https://www.gstatic.com/mapspro/images/stock/503-wht-blank_maps.png</href>
        </Icon>
      </IconStyle>
      <LabelStyle>
        <scale>0</scale>
      </LabelStyle>
    </Style>
    <Style id="icon-1532-0288D1-highlight">
      <IconStyle>
        <color>ffd18802</color>
        <scale>1</scale>
        <Icon>
          <href>https://www.gstatic.com/mapspro/images/stock/503-wht-blank_maps.png</href>
        </Icon>
      </IconStyle>
      <LabelStyle>
        <scale>1</scale>
      </LabelStyle>
    </Style>
    <StyleMap id="icon-1532-0288D1">
      <Pair>
        <key>normal</key>
        <styleUrl>#icon-1532-0288D1-normal</styleUrl>
      </Pair>
      <Pair>
        <key>highlight</key>
        <styleUrl>#icon-1532-0288D1-highlight</styleUrl>
      </Pair>
    </StyleMap>
    <Style id="icon-1532-7CB342-normal">
      <IconStyle>
        <color>ff42b37c</color>
        <scale>1</scale>
        <Icon>
          <href>https://www.gstatic.com/mapspro/images/stock/503-wht-blank_maps.png</href>
        </Icon>
      </IconStyle>
      <LabelStyle>
        <scale>0</scale>
      </LabelStyle>
    </Style>
    <Style id="icon-1532-7CB342-highlight">
      <IconStyle>
        <color>ff42b37c</color>
        <scale>1</scale>
        <Icon>
          <href>https://www.gstatic.com/mapspro/images/stock/503-wht-blank_maps.png</href>
        </Icon>
      </IconStyle>
      <LabelStyle>
        <scale>1</scale>
      </LabelStyle>
    </Style>
    <StyleMap id="icon-1532-7CB342">
      <Pair>
        <key>normal</key>
        <styleUrl>#icon-1532-7CB342-normal</styleUrl>
      </Pair>
      <Pair>
        <key>highlight</key>
        <styleUrl>#icon-1532-7CB342-highlight</styleUrl>
      </Pair>
    </StyleMap>
    <Style id="icon-1532-DB4436-normal">
      <IconStyle>
        <color>ff3644db</color>
        <scale>1</scale>
        <Icon>
          <href>https://www.gstatic.com/mapspro/images/stock/503-wht-blank_maps.png</href>
        </Icon>
      </IconStyle>
      <LabelStyle>
        <scale>0</scale>
      </LabelStyle>
    </Style>
    <Style id="icon-1532-DB4436-highlight">
      <IconStyle>
        <color>ff3644db</color>
        <scale>1</scale>
        <Icon>
          <href>https://www.gstatic.com/mapspro/images/stock/503-wht-blank_maps.png</href>
        </Icon>
      </IconStyle>
      <LabelStyle>
        <scale>1</scale>
      </LabelStyle>
    </Style>
    <StyleMap id="icon-1532-DB4436">
      <Pair>
        <key>normal</key>
        <styleUrl>#icon-1532-DB4436-normal</styleUrl>
      </Pair>
      <Pair>
        <key>highlight</key>
        <styleUrl>#icon-1532-DB4436-highlight</styleUrl>
      </Pair>
    </StyleMap>
    <Style id="line-0288D1-5000-nodesc-normal">
      <LineStyle>
        <color>ffd18802</color>
        <width>5</width>
      </LineStyle>
      <BalloonStyle>
        <text><![CDATA[<h3>$[name]</h3>]]></text>
      </BalloonStyle>
    </Style>
    <Style id="line-0288D1-5000-nodesc-highlight">
      <LineStyle>
        <color>ffd18802</color>
        <width>7.5</width>
      </LineStyle>
      <BalloonStyle>
        <text><![CDATA[<h3>$[name]</h3>]]></text>
      </BalloonStyle>
    </Style>
    <StyleMap id="line-0288D1-5000-nodesc">
      <Pair>
        <key>normal</key>
        <styleUrl>#line-0288D1-5000-nodesc-normal</styleUrl>
      </Pair>
      <Pair>
        <key>highlight</key>
        <styleUrl>#line-0288D1-5000-nodesc-highlight</styleUrl>
      </Pair>
    </StyleMap>
    <Style id="line-7CB342-7000-nodesc-normal">
      <LineStyle>
        <color>ff42b37c</color>
        <width>7</width>
      </LineStyle>
      <BalloonStyle>
        <text><![CDATA[<h3>$[name]</h3>]]></text>
      </BalloonStyle>
    </Style>
    <Style id="line-7CB342-7000-nodesc-highlight">
      <LineStyle>
        <color>ff42b37c</color>
        <width>10.5</width>
      </LineStyle>
      <BalloonStyle>
        <text><![CDATA[<h3>$[name]</h3>]]></text>
      </BalloonStyle>
    </Style>
    <StyleMap id="line-7CB342-7000-nodesc">
      <Pair>
        <key>normal</key>
        <styleUrl>#line-7CB342-7000-nodesc-normal</styleUrl>
      </Pair>
      <Pair>
        <key>highlight</key>
        <styleUrl>#line-7CB342-7000-nodesc-highlight</styleUrl>
      </Pair>
    </StyleMap>
    <Folder>
      <name>IDA</name>
      <Placemark>
        <name>IDA</name>
        <styleUrl>#line-0288D1-5000-nodesc</styleUrl>
        <LineString>
          <tessellate>1</tessellate>
          <coordinates>
            -96.743234,17.100772,0
            -96.743053,17.100666,0
            -96.742889,17.100506,0
            -96.742893,17.100444,0
            -96.742954,17.10037,0
            -96.74312,17.100125,0
            -96.743159,17.100063,0
            -96.743198,17.099988,0
            -96.743219,17.09991,0
            -96.743314,17.099349,0
            -96.743344,17.099122,0
            -96.743294,17.098926,0
            -96.742889,17.097786,0
            -96.74283,17.097681,0
            -96.742691,17.097525,0
            -96.742649,17.097448,0
            -96.742653,17.097363,0
            -96.74268,17.097317,0
            -96.742712,17.097291,0
            -96.742763,17.097248,0
            -96.742818,17.097213,0
            -96.742885,17.097188,0
            -96.742958,17.097172,0
            -96.74303,17.097167,0
            -96.743089,17.097166,0
            -96.743179,17.097168,0
            -96.743219,17.097176,0
            -96.743281,17.097191,0
            -96.743347,17.097223,0
            -96.743583,17.097323,0
            -96.743831,17.097434,0
            -96.743945,17.097476,0
            -96.744033,17.097496,0
            -96.744122,17.097499,0
            -96.744224,17.09749,0
            -96.744319,17.097468,0
            -96.744382,17.097438,0
            -96.744429,17.097376,0
            -96.744489,17.097302,0
            -96.744535,17.097223,0
            -96.744563,17.097154,0
            -96.744595,17.097048,0
            -96.744625,17.096903,0
            -96.744649,17.096752,0
            -96.744688,17.096656,0
            -96.74475,17.096435,0
            -96.744741,17.096316,0
            -96.744732,17.096236,0
            -96.744662,17.096061,0
            -96.744615,17.095957,0
            -96.74454,17.095879,0
            -96.744434,17.095813,0
            -96.744291,17.095768,0
            -96.74415,17.095763,0
            -96.743933,17.0958,0
            -96.743742,17.095836,0
            -96.743561,17.095858,0
            -96.743194,17.095848,0
            -96.742952,17.095843,0
            -96.742864,17.095838,0
            -96.742649,17.095892,0
            -96.742474,17.095927,0
            -96.742188,17.096026,0
            -96.741822,17.096131,0
            -96.741614,17.09617,0
            -96.741589,17.096166,0
            -96.74149,17.096134,0
            -96.741424,17.096081,0
            -96.741388,17.096034,0
            -96.741327,17.095898,0
            -96.741283,17.095745,0
            -96.741267,17.095717,0
            -96.74122,17.095654,0
            -96.74114,17.095579,0
            -96.741062,17.095513,0
            -96.740972,17.095444,0
            -96.740953,17.095396,0
            -96.740934,17.095349,0
            -96.740936,17.095282,0
            -96.741007,17.09513,0
            -96.741087,17.094965,0
            -96.741192,17.094636,0
            -96.741263,17.094343,0
            -96.741433,17.093907,0
            -96.741542,17.093589,0
            -96.741613,17.09341,0
            -96.741659,17.093219,0
            -96.741676,17.093148,0
            -96.741651,17.093036,0
            -96.74163,17.09298,0
            -96.741636,17.092928,0
            -96.74165,17.092876,0
            -96.741697,17.092848,0
            -96.74193,17.092754,0
            -96.742082,17.0927,0
            -96.742182,17.092672,0
            -96.742339,17.092641,0
            -96.742418,17.092632,0
            -96.742507,17.092631,0
            -96.74258,17.092621,0
            -96.742662,17.092607,0
            -96.74274,17.09259,0
            -96.742834,17.092557,0
            -96.742905,17.092516,0
            -96.74298,17.092473,0
            -96.743052,17.092404,0
            -96.743117,17.092332,0
            -96.743212,17.092272,0
            -96.74333,17.092199,0
            -96.743401,17.092145,0
            -96.743573,17.091999,0
            -96.743681,17.091922,0
            -96.743736,17.091893,0
            -96.743904,17.091867,0
            -96.743931,17.091998,0
            -96.744229,17.092987,0
            -96.744282,17.09301,0
            -96.746514,17.092334,0
            -96.746122,17.091421,0
            -96.747082,17.090914,0
            -96.747266,17.090808,0
            -96.746707,17.089419,0
            -96.745999,17.08787,0
            -96.745296,17.086316,0
            -96.745006,17.085588,0
            -96.744717,17.084963,0
            -96.744266,17.083814,0
            -96.743928,17.083096,0
            -96.743816,17.082753,0
            -96.743622,17.082445,0
            -96.743633,17.082286,0
            -96.743617,17.081866,0
            -96.743601,17.081225,0
            -96.743569,17.080594,0
            -96.743499,17.080214,0
            -96.74344,17.080004,0
            -96.742917,17.079048,0
            -96.742909,17.078917,0
            -96.742786,17.078707,0
            -96.742485,17.07822,0
            -96.741758,17.07694,0
            -96.741281,17.076089,0
            -96.741249,17.075968,0
            -96.741254,17.075915,0
            -96.741214,17.07583,0
            -96.741147,17.075712,0
            -96.74101,17.075576,0
            -96.740873,17.075502,0
            -96.740519,17.074974,0
            -96.740232,17.074561,0
            -96.739442,17.073517,0
            -96.738789,17.072666,0
            -96.738486,17.072243,0
            -96.738456,17.072187,0
            -96.738365,17.071992,0
            -96.738255,17.0718,0
            -96.737841,17.070948,0
            -96.737492,17.069983,0
            -96.737377,17.069688,0
            -96.737197,17.069296,0
            -96.737122,17.069162,0
            -96.736433,17.068032,0
            -96.73628,17.067785,0
            -96.735854,17.067108,0
            -96.735899,17.066957,0
            -96.735972,17.066688,0
            -96.735974,17.066442,0
            -96.735904,17.066265,0
            -96.735843,17.066157,0
            -96.735719,17.066119,0
            -96.735534,17.066101,0
            -96.735266,17.066083,0
            -96.735215,17.066057,0
            -96.734764,17.065401,0
            -96.734665,17.065247,0
            -96.734349,17.064868,0
            -96.734059,17.064539,0
            -96.733946,17.064421,0
            -96.733735,17.064211,0
            -96.733681,17.064132,0
            -96.733214,17.063801,0
            -96.733069,17.063698,0
            -96.732568,17.063468,0
            -96.732139,17.063368,0
            -96.731476,17.06329,0
            -96.730216,17.063047,0
            -96.727514,17.062479,0
            -96.727552,17.062237,0
            -96.727586,17.062056,0
            -96.727684,17.061551,0
            -96.727871,17.060661,0
            -96.727938,17.060392,0
            -96.72807,17.059692,0
            -96.728322,17.058556,0
            -96.728676,17.056871,0
            -96.728866,17.055915,0
            -96.729065,17.054971,0
            -96.728338,17.05483,0
            -96.728054,17.054761,0
            -96.72708,17.054538,0
            -96.726514,17.054445,0
            -96.726082,17.054363,0
            -96.725184,17.054215,0
            -96.724277,17.054071,0
            -96.724248,17.054067,0
            -96.724105,17.054729,0
            -96.723823,17.056026,0
            -96.722952,17.055877,0
            -96.721278,17.055597,0
            -96.720256,17.05539,0
            -96.719604,17.055274,0
            -96.71906,17.055172,0
            -96.71888,17.055933,0
            -96.718751,17.056813,0
            -96.717665,17.056587,0
            -96.716906,17.056464,0
            -96.715916,17.056277,0
            -96.714462,17.055964,0
            -96.713709,17.055823,0
            -96.713175,17.055728,0
            -96.713167,17.055648,0
            -96.713239,17.054979,0
            -96.713271,17.05473,0
            -96.713293,17.054507,0
            -96.713258,17.05432,0
            -96.71318,17.05423,0
            -96.713065,17.054172,0
            -96.712934,17.054192,0
            -96.712838,17.054219,0
            -96.712767,17.054117,0
            -96.712566,17.054087,0
            -96.712403,17.054046,0
            -96.712243,17.054037,0
            -96.711934,17.053965,0
            -96.710521,17.053742,0
            -96.70938,17.053599,0
            -96.707947,17.053366,0
            -96.707298,17.053268,0
            -96.7067,17.053196,0
            -96.706628,17.053073,0
            -96.70611,17.052242,0
            -96.705963,17.051999,0
            -96.705633,17.051509,0
            -96.705474,17.051255,0
            -96.705389,17.051165,0
            -96.70522,17.051027,0
            -96.704785,17.050786,0
            -96.704388,17.050568,0
            -96.704275,17.050501,0
            -96.703978,17.050391,0
            -96.703291,17.050255,0
            -96.702545,17.050111,0
            -96.701821,17.049965,0
            -96.700869,17.049777,0
            -96.699346,17.049474,0
            -96.697554,17.049136,0
            -96.697372,17.049059,0
            -96.697007,17.048792,0
            -96.696889,17.048685,0
            -96.696157,17.04849,0
            -96.695234,17.048272,0
            -96.695025,17.048218,0
            -96.694869,17.048144,0
            -96.69359,17.047841,0
            -96.693646,17.047646,0
            -96.693828,17.047005,0
            -96.69393,17.046577,0
            -96.694005,17.04632,0
            -96.694097,17.046005,0
            -96.69419,17.0456,0
            -96.694295,17.045141,0
            -96.694333,17.044973,0
            -96.694378,17.044855,0
            -96.694413,17.044757,0
            -96.694435,17.044687,0
            -96.694451,17.044621,0
            -96.694453,17.04453,0
            -96.694448,17.044442,0
            -96.69442,17.044375,0
            -96.694366,17.044306,0
            -96.694138,17.044178,0
            -96.693505,17.04383,0
            -96.693132,17.043635,0
            -96.692447,17.04326,0
            -96.692426,17.043235,0
            -96.692494,17.042736,0
            -96.692552,17.042285,0
            -96.692678,17.041552,0
            -96.692758,17.041054,0
            -96.692849,17.040431,0
            -96.692903,17.040077,0
            -96.692924,17.039498,0
            -96.692903,17.039382,0
            -96.692839,17.039249,0
            -96.69266,17.038917,0
            -96.692588,17.038923,0
            -96.692021,17.039255,0
            -96.691992,17.039253,0
            -96.691966,17.039172,0
            -96.691544,17.038354,0
            -96.691117,17.037531,0
            -96.690875,17.037084,0
            -96.690798,17.037,0
            -96.69073,17.036932,0
            -96.690657,17.036887,0
            -96.690458,17.036816,0
            -96.690358,17.036824,0
            -96.690285,17.036841,0
            -96.690216,17.036877,0
          </coordinates>
        </LineString>
      </Placemark>
      <Placemark>
        <name>Base Bugambilias</name>
        <description>17.1008003,-96.7432336</description>
        <styleUrl>#icon-1532-DB4436</styleUrl>
        <Point>
          <coordinates>
            -96.743234,17.1008,0
          </coordinates>
        </Point>
      </Placemark>
      <Placemark>
        <name>Perla</name>
        <description>17.09921,-96.7433253</description>
        <styleUrl>#icon-1532-0288D1</styleUrl>
        <Point>
          <coordinates>
            -96.743325,17.09921,0
          </coordinates>
        </Point>
      </Placemark>
      <Placemark>
        <name>Azabache</name>
        <description>17.0976453,-96.7427415</description>
        <styleUrl>#icon-1532-0288D1</styleUrl>
        <Point>
          <coordinates>
            -96.742741,17.097645,0
          </coordinates>
        </Point>
      </Placemark>
      <Placemark>
        <name>Amatista</name>
        <description>17.0971365,-96.7445677</description>
        <styleUrl>#icon-1532-0288D1</styleUrl>
        <Point>
          <coordinates>
            -96.744568,17.097136,0
          </coordinates>
        </Point>
      </Placemark>
      <Placemark>
        <name>Onix Onice</name>
        <description>17.0959023,-96.7433367</description>
        <styleUrl>#icon-1532-0288D1</styleUrl>
        <Point>
          <coordinates>
            -96.743337,17.095902,0
          </coordinates>
        </Point>
      </Placemark>
      <Placemark>
        <name>Zempoaltépetl</name>
        <description>17.0960272,-96.7413467</description>
        <styleUrl>#icon-1532-0288D1</styleUrl>
        <Point>
          <coordinates>
            -96.741347,17.096027,0
          </coordinates>
        </Point>
      </Placemark>
      <Placemark>
        <name>Mirador</name>
        <description>17.093738,-96.7415125</description>
        <styleUrl>#icon-1532-0288D1</styleUrl>
        <Point>
          <coordinates>
            -96.741512,17.093738,0
          </coordinates>
        </Point>
      </Placemark>
      <Placemark>
        <name>Circuito Santa Rosa</name>
        <description>17.0921837,-96.7433933</description>
        <styleUrl>#icon-1532-0288D1</styleUrl>
        <Point>
          <coordinates>
            -96.743393,17.092184,0
          </coordinates>
        </Point>
      </Placemark>
      <Placemark>
        <name>Cerro del Oro</name>
        <description>17.0930068,-96.7443376</description>
        <styleUrl>#icon-1532-0288D1</styleUrl>
        <Point>
          <coordinates>
            -96.744338,17.093007,0
          </coordinates>
        </Point>
      </Placemark>
      <Placemark>
        <name>Santa Carolina</name>
        <description>17.0923802,-96.7464143</description>
        <styleUrl>#icon-1532-0288D1</styleUrl>
        <Point>
          <coordinates>
            -96.746414,17.09238,0
          </coordinates>
        </Point>
      </Placemark>
      <Placemark>
        <name>Magdalena</name>
        <description>17.0910477,-96.7469106</description>
        <styleUrl>#icon-1532-0288D1</styleUrl>
        <Point>
          <coordinates>
            -96.746911,17.091048,0
          </coordinates>
        </Point>
      </Placemark>
      <Placemark>
        <name>Naga´nda</name>
        <description>17.08601 -96.74516</description>
        <styleUrl>#icon-1532-0288D1</styleUrl>
        <Point>
          <coordinates>
            -96.74516,17.08601,0
          </coordinates>
        </Point>
      </Placemark>
      <Placemark>
        <name>Cuauhtémoc</name>
        <description>17.08311 -96.74395</description>
        <styleUrl>#icon-1532-0288D1</styleUrl>
        <Point>
          <coordinates>
            -96.74395,17.08311,0
          </coordinates>
        </Point>
      </Placemark>
      <Placemark>
        <name>Tecnológico</name>
        <description>17.079411 -96.743154</description>
        <styleUrl>#icon-1532-0288D1</styleUrl>
        <Point>
          <coordinates>
            -96.743154,17.079411,0
          </coordinates>
        </Point>
      </Placemark>
      <Placemark>
        <name>Luis Enrique Erro</name>
        <description>17.076001 -96.741272</description>
        <styleUrl>#icon-1532-0288D1</styleUrl>
        <Point>
          <coordinates>
            -96.741272,17.076001,0
          </coordinates>
        </Point>
      </Placemark>
      <Placemark>
        <name>Montes de Oca</name>
        <description>17.073299 -96.739283</description>
        <styleUrl>#icon-1532-0288D1</styleUrl>
        <Point>
          <coordinates>
            -96.739283,17.073299,0
          </coordinates>
        </Point>
      </Placemark>
      <Placemark>
        <name>Museo del Ferocarril</name>
        <description>17.068481 -96.736731</description>
        <styleUrl>#icon-1532-0288D1</styleUrl>
        <Point>
          <coordinates>
            -96.736731,17.068481,0
          </coordinates>
        </Point>
      </Placemark>
      <Placemark>
        <name>Ferrocarril</name>
        <description>17.0661355,-96.7354624</description>
        <styleUrl>#icon-1532-0288D1</styleUrl>
        <Point>
          <coordinates>
            -96.735462,17.066136,0
          </coordinates>
        </Point>
      </Placemark>
      <Placemark>
        <name>Guadalupe Victoria</name>
        <description>17.0646328,-96.7341125</description>
        <styleUrl>#icon-1532-0288D1</styleUrl>
        <Point>
          <coordinates>
            -96.734112,17.064633,0
          </coordinates>
        </Point>
      </Placemark>
      <Placemark>
        <name>Jardín Morelos</name>
        <description>17.06332 -96.73186</description>
        <styleUrl>#icon-1532-0288D1</styleUrl>
        <Point>
          <coordinates>
            -96.73186,17.06332,0
          </coordinates>
        </Point>
      </Placemark>
      <Placemark>
        <name>Diaz Ordáz</name>
        <description>17.0627 -96.72858</description>
        <styleUrl>#icon-1532-0288D1</styleUrl>
        <Point>
          <coordinates>
            -96.72858,17.0627,0
          </coordinates>
        </Point>
      </Placemark>
      <Placemark>
        <name>Valerio Trujano</name>
        <description>17.0607 -96.727835</description>
        <styleUrl>#icon-1532-0288D1</styleUrl>
        <Point>
          <coordinates>
            -96.727835,17.0607,0
          </coordinates>
        </Point>
      </Placemark>
      <Placemark>
        <name>Mina</name>
        <description>17.0580372,-96.7284152</description>
        <styleUrl>#icon-1532-0288D1</styleUrl>
        <Point>
          <coordinates>
            -96.728415,17.058037,0
          </coordinates>
        </Point>
      </Placemark>
      <Placemark>
        <name>J.P. García</name>
        <description>17.0551845,-96.7290005</description>
        <styleUrl>#icon-1532-0288D1</styleUrl>
        <Point>
          <coordinates>
            -96.729,17.055184,0
          </coordinates>
        </Point>
      </Placemark>
      <Placemark>
        <name>Miguel Cabrera</name>
        <description>17.0545731,-96.7271789</description>
        <styleUrl>#icon-1532-0288D1</styleUrl>
        <Point>
          <coordinates>
            -96.727179,17.054573,0
          </coordinates>
        </Point>
      </Placemark>
      <Placemark>
        <name>Xóchitl</name>
        <description>17.0541253,-96.7244272</description>
        <styleUrl>#icon-1532-0288D1</styleUrl>
        <Point>
          <coordinates>
            -96.724427,17.054125,0
          </coordinates>
        </Point>
      </Placemark>
      <Placemark>
        <name>La Noria</name>
        <description>17.0559322,-96.7238645</description>
        <styleUrl>#icon-1532-0288D1</styleUrl>
        <Point>
          <coordinates>
            -96.723864,17.055932,0
          </coordinates>
        </Point>
      </Placemark>
      <Placemark>
        <name>Xicoténcatl</name>
        <description>17.0557437,-96.721995</description>
        <styleUrl>#icon-1532-0288D1</styleUrl>
        <Point>
          <coordinates>
            -96.721995,17.055744,0
          </coordinates>
        </Point>
      </Placemark>
      <Placemark>
        <name>González Ortega</name>
        <description>17.0552535,-96.7192981</description>
        <styleUrl>#icon-1532-0288D1</styleUrl>
        <Point>
          <coordinates>
            -96.719298,17.055254,0
          </coordinates>
        </Point>
      </Placemark>
      <Placemark>
        <name>Santos Degollado</name>
        <description>17.0566954,-96.7180422</description>
        <styleUrl>#icon-1532-0288D1</styleUrl>
        <Point>
          <coordinates>
            -96.718042,17.056695,0
          </coordinates>
        </Point>
      </Placemark>
      <Placemark>
        <name>Emiliano Zapata</name>
        <description>17.0563194,-96.7160606</description>
        <styleUrl>#icon-1532-0288D1</styleUrl>
        <Point>
          <coordinates>
            -96.716061,17.056319,0
          </coordinates>
        </Point>
      </Placemark>
      <Placemark>
        <name>Rayón</name>
        <description>17.0557971,-96.7133311</description>
        <styleUrl>#icon-1532-0288D1</styleUrl>
        <Point>
          <coordinates>
            -96.713331,17.055797,0
          </coordinates>
        </Point>
      </Placemark>
      <Placemark>
        <name>Plan de Ayala</name>
        <description>17.0539029,-96.7112765</description>
        <styleUrl>#icon-1532-0288D1</styleUrl>
        <Point>
          <coordinates>
            -96.711276,17.053903,0
          </coordinates>
        </Point>
      </Placemark>
      <Placemark>
        <name>Parque Los Conos</name>
        <description>17.053572,-96.708865</description>
        <styleUrl>#icon-1532-0288D1</styleUrl>
        <Point>
          <coordinates>
            -96.708865,17.053572,0
          </coordinates>
        </Point>
      </Placemark>
      <Placemark>
        <name>Prolongación de la Noria</name>
        <description>17.0532309,-96.7069065</description>
        <styleUrl>#icon-1532-0288D1</styleUrl>
        <Point>
          <coordinates>
            -96.706907,17.053231,0
          </coordinates>
        </Point>
      </Placemark>
      <Placemark>
        <name>Rio Salado</name>
        <description>17.0508954,-96.70489</description>
        <styleUrl>#icon-1532-0288D1</styleUrl>
        <Point>
          <coordinates>
            -96.704901,17.050885,0
          </coordinates>
        </Point>
      </Placemark>
      <Placemark>
        <name>Esc. Sec. Tec. 139</name>
        <description>17.0502342,-96.70322</description>
        <styleUrl>#icon-1532-0288D1</styleUrl>
        <Point>
          <coordinates>
            -96.70322,17.050234,0
          </coordinates>
        </Point>
      </Placemark>
      <Placemark>
        <name>Laureles</name>
        <description>17.049775,-96.7006805</description>
        <styleUrl>#icon-1532-0288D1</styleUrl>
        <Point>
          <coordinates>
            -96.70068,17.049775,0
          </coordinates>
        </Point>
      </Placemark>
      <Placemark>
        <name>Venecia</name>
        <description>17.0492861,-96.6979585</description>
        <styleUrl>#icon-1532-0288D1</styleUrl>
        <Point>
          <coordinates>
            -96.697958,17.049286,0
          </coordinates>
        </Point>
      </Placemark>
      <Placemark>
        <name>Crucero del Rosario</name>
        <description>17.0483297,-96.6952864</description>
        <styleUrl>#icon-1532-0288D1</styleUrl>
        <Point>
          <coordinates>
            -96.695286,17.04833,0
          </coordinates>
        </Point>
      </Placemark>
      <Placemark>
        <name>Del Rosario</name>
        <description>17.0479516,-96.6940359</description>
        <styleUrl>#icon-1532-0288D1</styleUrl>
        <Point>
          <coordinates>
            -96.694036,17.047952,0
          </coordinates>
        </Point>
      </Placemark>
      <Placemark>
        <name>Cuatro</name>
        <description>17.0470017,-96.6937735</description>
        <styleUrl>#icon-1532-0288D1</styleUrl>
        <Point>
          <coordinates>
            -96.693774,17.047002,0
          </coordinates>
        </Point>
      </Placemark>
      <Placemark>
        <name>Circuito Sur 1</name>
        <description>17.045267,-96.6942139</description>
        <styleUrl>#icon-1532-0288D1</styleUrl>
        <Point>
          <coordinates>
            -96.6942864,17.0452067,0
          </coordinates>
        </Point>
      </Placemark>
      <Placemark>
        <name>Juchatengo</name>
        <description>17.043935,-96.693628</description>
        <styleUrl>#icon-1532-0288D1</styleUrl>
        <Point>
          <coordinates>
            -96.6936307,17.0438927,0
          </coordinates>
        </Point>
      </Placemark>
      <Placemark>
        <name>Tehuantepec</name>
        <description>17.0433596,-96.6924994</description>
        <styleUrl>#icon-1532-0288D1</styleUrl>
        <Point>
          <coordinates>
            -96.6924387,17.0432151,0
          </coordinates>
        </Point>
      </Placemark>
      <Placemark>
        <name>Tejupan</name>
        <description>17.0411524,-96.6926622</description>
        <styleUrl>#icon-1532-0288D1</styleUrl>
        <Point>
          <coordinates>
            -96.6927586,17.0410853,0
          </coordinates>
        </Point>
      </Placemark>
      <Placemark>
        <name>Mercado Municipal Luis Donaldo Colosio</name>
        <description>17.0390306,-96.6926615</description>
        <styleUrl>#icon-1532-0288D1</styleUrl>
        <Point>
          <coordinates>
            -96.6926047,17.038922,0
          </coordinates>
        </Point>
      </Placemark>
      <Placemark>
        <name>Base Fracc. Punta Vizcaya</name>
        <description>17.0368917,-96.6903797</description>
        <styleUrl>#icon-1532-DB4436</styleUrl>
        <Point>
          <coordinates>
            -96.6902164,17.0368779,0
          </coordinates>
        </Point>
      </Placemark>
    </Folder>
    <Folder>
      <name>REGRESO</name>
      <Placemark>
        <name>REGRESO</name>
        <styleUrl>#line-7CB342-7000-nodesc</styleUrl>
        <LineString>
          <tessellate>1</tessellate>
          <coordinates>
            -96.690257,17.03689,0
            -96.690327,17.036861,0
            -96.690409,17.036847,0
            -96.690486,17.036854,0
            -96.690593,17.036893,0
            -96.690676,17.036938,0
            -96.690711,17.036959,0
            -96.690772,17.037014,0
            -96.690849,17.037118,0
            -96.69092,17.037236,0
            -96.691057,17.037498,0
            -96.691163,17.037696,0
            -96.691427,17.038218,0
            -96.691632,17.038598,0
            -96.691986,17.039293,0
            -96.692023,17.039298,0
            -96.692239,17.039166,0
            -96.69263,17.038942,0
            -96.692701,17.039078,0
            -96.692822,17.039312,0
            -96.692877,17.039433,0
            -96.692876,17.039639,0
            -96.692854,17.040093,0
            -96.69278,17.040584,0
            -96.692686,17.041232,0
            -96.69261,17.041697,0
            -96.69251,17.042237,0
            -96.692469,17.042601,0
            -96.692384,17.043223,0
            -96.692382,17.043265,0
            -96.692425,17.043299,0
            -96.692838,17.043515,0
            -96.69383,17.044051,0
            -96.694241,17.044276,0
            -96.694343,17.044336,0
            -96.694375,17.044381,0
            -96.694403,17.044445,0
            -96.694411,17.04453,0
            -96.694406,17.044612,0
            -96.694402,17.044655,0
            -96.694366,17.04476,0
            -96.694313,17.0449,0
            -96.694265,17.045069,0
            -96.69425,17.045177,0
            -96.694127,17.045668,0
            -96.694069,17.04593,0
            -96.693891,17.0466,0
            -96.693722,17.047234,0
            -96.693515,17.047926,0
            -96.693787,17.048006,0
            -96.694191,17.048105,0
            -96.694654,17.04821,0
            -96.694985,17.048279,0
            -96.695587,17.048394,0
            -96.695683,17.04842,0
            -96.695775,17.04846,0
            -96.69626,17.048566,0
            -96.696662,17.048673,0
            -96.696788,17.048702,0
            -96.696869,17.048739,0
            -96.69713,17.048942,0
            -96.697238,17.049027,0
            -96.697346,17.0491,0
            -96.697438,17.049148,0
            -96.697553,17.049187,0
            -96.697745,17.04923,0
            -96.698744,17.049415,0
            -96.699586,17.049589,0
            -96.700423,17.049748,0
            -96.701225,17.049897,0
            -96.701819,17.050016,0
            -96.702612,17.050183,0
            -96.703053,17.050265,0
            -96.703603,17.05037,0
            -96.703934,17.050433,0
            -96.704311,17.050564,0
            -96.704376,17.050623,0
            -96.704865,17.050884,0
            -96.705066,17.050992,0
            -96.705221,17.051096,0
            -96.705449,17.051315,0
            -96.705775,17.051823,0
            -96.706258,17.052583,0
            -96.70664,17.05319,0
            -96.706899,17.053569,0
            -96.707236,17.054055,0
            -96.707551,17.054478,0
            -96.707786,17.05479,0
            -96.70814,17.055283,0
            -96.708433,17.055712,0
            -96.708674,17.056095,0
            -96.708857,17.056377,0
            -96.70935,17.057149,0
            -96.709447,17.057269,0
            -96.709588,17.057529,0
            -96.709686,17.057598,0
            -96.709779,17.057603,0
            -96.709825,17.057562,0
            -96.710294,17.057005,0
            -96.711053,17.056105,0
            -96.71141,17.055692,0
            -96.711644,17.055433,0
            -96.711831,17.055248,0
            -96.712121,17.054992,0
            -96.712907,17.054484,0
            -96.713183,17.054346,0
            -96.713446,17.05423,0
            -96.713524,17.054215,0
            -96.713623,17.054256,0
            -96.71376,17.054264,0
            -96.714438,17.054366,0
            -96.714955,17.054444,0
            -96.715763,17.054552,0
            -96.716687,17.05468,0
            -96.717294,17.054772,0
            -96.717742,17.054847,0
            -96.717955,17.054885,0
            -96.718243,17.054967,0
            -96.718682,17.055098,0
            -96.719004,17.055193,0
            -96.7191,17.055208,0
            -96.718994,17.055622,0
            -96.71891,17.055987,0
            -96.719476,17.056089,0
            -96.71992,17.056184,0
            -96.720773,17.056352,0
            -96.721754,17.05655,0
            -96.722653,17.05669,0
            -96.723546,17.056855,0
            -96.723967,17.056957,0
            -96.724219,17.057021,0
            -96.724622,17.057103,0
            -96.725625,17.057275,0
            -96.726454,17.057435,0
            -96.727556,17.057664,0
            -96.72822,17.057796,0
            -96.728865,17.057922,0
            -96.729699,17.058083,0
            -96.730798,17.058254,0
            -96.731244,17.058313,0
            -96.731335,17.058334,0
            -96.731196,17.058749,0
            -96.731158,17.058834,0
            -96.731142,17.05896,0
            -96.731011,17.059596,0
            -96.730821,17.060288,0
            -96.731156,17.060378,0
            -96.731658,17.060486,0
            -96.7321,17.060555,0
            -96.732913,17.060706,0
            -96.73313,17.060752,0
            -96.733336,17.060768,0
            -96.73346,17.060758,0
            -96.733681,17.061088,0
            -96.734043,17.061614,0
            -96.734336,17.06195,0
            -96.734384,17.062019,0
            -96.734631,17.062365,0
            -96.734834,17.062663,0
            -96.735052,17.063004,0
            -96.735245,17.063299,0
            -96.735465,17.063609,0
            -96.735757,17.064135,0
            -96.735881,17.064381,0
            -96.73605,17.064771,0
            -96.736152,17.065024,0
            -96.736216,17.06526,0
            -96.736264,17.065527,0
            -96.736218,17.065727,0
            -96.736138,17.065848,0
            -96.736084,17.065937,0
            -96.735958,17.066032,0
            -96.735848,17.066117,0
            -96.7355,17.066168,0
            -96.73528,17.066419,0
            -96.735178,17.066506,0
            -96.734395,17.06675,0
            -96.734376,17.066788,0
            -96.734666,17.067063,0
            -96.734891,17.067319,0
            -96.735103,17.067591,0
            -96.735347,17.067927,0
            -96.735537,17.068227,0
            -96.735838,17.068796,0
            -96.735958,17.069032,0
            -96.736141,17.069491,0
            -96.736398,17.070148,0
            -96.736448,17.070304,0
            -96.736632,17.070976,0
            -96.737031,17.071701,0
            -96.737396,17.072399,0
            -96.737576,17.072694,0
            -96.738211,17.073811,0
            -96.738571,17.074401,0
            -96.738941,17.074955,0
            -96.739161,17.075219,0
            -96.739542,17.075673,0
            -96.739708,17.075916,0
            -96.739915,17.076383,0
            -96.740068,17.07675,0
            -96.740336,17.077365,0
            -96.740676,17.078129,0
            -96.741127,17.079037,0
            -96.741417,17.079626,0
            -96.741502,17.07988,0
            -96.741454,17.079955,0
            -96.741449,17.080055,0
            -96.741441,17.080144,0
            -96.741787,17.080342,0
            -96.742012,17.080475,0
            -96.742288,17.080655,0
            -96.742522,17.080834,0
            -96.742712,17.080996,0
            -96.742862,17.081178,0
            -96.743029,17.081434,0
            -96.74323,17.081903,0
            -96.743426,17.082365,0
            -96.743622,17.082856,0
            -96.743802,17.083225,0
            -96.744068,17.083902,0
            -96.74444,17.084768,0
            -96.744628,17.085199,0
            -96.744961,17.085986,0
            -96.744971,17.086071,0
            -96.745191,17.086543,0
            -96.745492,17.087189,0
            -96.745682,17.087673,0
            -96.745843,17.087991,0
            -96.74595,17.088222,0
            -96.746259,17.088935,0
            -96.746498,17.089481,0
            -96.746758,17.09016,0
            -96.747069,17.090886,0
            -96.747503,17.091832,0
            -96.747565,17.091996,0
            -96.747208,17.092109,0
            -96.746687,17.092262,0
            -96.746341,17.09237,0
            -96.745622,17.09258,0
            -96.745116,17.092726,0
            -96.744552,17.0929,0
            -96.744274,17.092979,0
            -96.744243,17.092906,0
            -96.74419,17.092718,0
            -96.744073,17.092338,0
            -96.743987,17.092057,0
            -96.743927,17.091865,0
            -96.743919,17.091825,0
            -96.743785,17.091852,0
            -96.743691,17.091872,0
            -96.743437,17.092062,0
            -96.743339,17.092147,0
            -96.743279,17.092184,0
            -96.743192,17.092248,0
            -96.743101,17.092304,0
            -96.743024,17.09238,0
            -96.742962,17.092448,0
            -96.74287,17.092494,0
            -96.742742,17.092551,0
            -96.742643,17.092579,0
            -96.742539,17.092592,0
            -96.742392,17.0926,0
            -96.742211,17.092637,0
            -96.742069,17.09267,0
            -96.741947,17.092711,0
            -96.741837,17.092755,0
            -96.741696,17.09281,0
            -96.741633,17.092846,0
            -96.741599,17.092901,0
            -96.741588,17.092952,0
            -96.741635,17.093125,0
            -96.741636,17.093168,0
            -96.741564,17.09344,0
            -96.741491,17.093621,0
            -96.741326,17.094083,0
            -96.741235,17.094319,0
            -96.741155,17.094613,0
            -96.741062,17.094916,0
            -96.741025,17.095015,0
            -96.740906,17.095265,0
            -96.740896,17.095315,0
            -96.740901,17.095361,0
            -96.740937,17.095449,0
            -96.740992,17.095507,0
            -96.741058,17.095559,0
            -96.741136,17.095621,0
            -96.741184,17.095675,0
            -96.741218,17.095714,0
            -96.741251,17.095772,0
            -96.741281,17.095875,0
            -96.741314,17.095975,0
            -96.741352,17.096043,0
            -96.741387,17.096095,0
            -96.741447,17.096149,0
            -96.741494,17.096172,0
            -96.741554,17.096194,0
            -96.741621,17.096204,0
            -96.741686,17.096193,0
            -96.741888,17.096146,0
            -96.742156,17.09607,0
            -96.742442,17.095976,0
            -96.742883,17.095885,0
            -96.743294,17.095888,0
            -96.743551,17.095894,0
            -96.743736,17.095882,0
            -96.743893,17.095856,0
            -96.74408,17.095812,0
            -96.744192,17.095803,0
            -96.744301,17.095809,0
            -96.744377,17.095826,0
            -96.744479,17.095881,0
            -96.744541,17.095931,0
            -96.744597,17.096018,0
            -96.744655,17.096135,0
            -96.744703,17.096281,0
            -96.74471,17.096404,0
            -96.744698,17.096475,0
            -96.74464,17.096662,0
            -96.744593,17.096849,0
            -96.74458,17.096977,0
            -96.744505,17.0972,0
            -96.744393,17.097366,0
            -96.744348,17.097414,0
            -96.744292,17.097435,0
            -96.744148,17.097459,0
            -96.744046,17.097462,0
            -96.743886,17.097421,0
            -96.743565,17.097272,0
            -96.743355,17.097187,0
            -96.74324,17.097135,0
            -96.743154,17.09713,0
            -96.743047,17.097126,0
            -96.742929,17.097139,0
            -96.742846,17.097166,0
            -96.742785,17.09719,0
            -96.742714,17.097237,0
            -96.742659,17.09729,0
            -96.742616,17.097362,0
            -96.742611,17.097437,0
            -96.742616,17.097482,0
            -96.742706,17.097605,0
            -96.742808,17.097721,0
            -96.742846,17.097795,0
            -96.743087,17.098464,0
            -96.74319,17.098755,0
            -96.743307,17.099126,0
            -96.743292,17.099214,0
            -96.74326,17.099423,0
            -96.743169,17.099959,0
            -96.743123,17.100052,0
            -96.742926,17.100348,0
            -96.742865,17.100439,0
            -96.74286,17.100492,0
            -96.742893,17.100543,0
            -96.742953,17.100596,0
          </coordinates>
        </LineString>
      </Placemark>
      <Placemark>
        <name>Base Fracc. Punta Vizcaya</name>
        <description>17.0368917,-96.6903797</description>
        <styleUrl>#icon-1532-7CB342</styleUrl>
        <Point>
          <coordinates>
            -96.6902673,17.0368933,0
          </coordinates>
        </Point>
      </Placemark>
      <Placemark>
        <name>Tlaxiaco</name>
        <description>17.039316,-96.69281</description>
        <styleUrl>#icon-1532-7CB342</styleUrl>
        <Point>
          <coordinates>
            -96.69281,17.039316,0
          </coordinates>
        </Point>
      </Placemark>
      <Placemark>
        <name>Tejupan</name>
        <description>17.0410593,-96.6926808</description>
        <styleUrl>#icon-1532-7CB342</styleUrl>
        <Point>
          <coordinates>
            -96.692681,17.041059,0
          </coordinates>
        </Point>
      </Placemark>
      <Placemark>
        <name>Tehuantepec</name>
        <description>17.0430775,-96.6924071</description>
        <styleUrl>#icon-1532-7CB342</styleUrl>
        <Point>
          <coordinates>
            -96.6923949,17.0431511,0
          </coordinates>
        </Point>
      </Placemark>
      <Placemark>
        <name>Juchatengo</name>
        <description>17.0438056,-96.6933303</description>
        <styleUrl>#icon-1532-7CB342</styleUrl>
        <Point>
          <coordinates>
            -96.69333,17.043806,0
          </coordinates>
        </Point>
      </Placemark>
      <Placemark>
        <name>Circuito Sur 1</name>
        <description>17.0450078,-96.6943053</description>
        <styleUrl>#icon-1532-7CB342</styleUrl>
        <Point>
          <coordinates>
            -96.6942876,17.0449785,0
          </coordinates>
        </Point>
      </Placemark>
      <Placemark>
        <name>Tres</name>
        <description>17.047276,-96.693715</description>
        <styleUrl>#icon-1532-7CB342</styleUrl>
        <Point>
          <coordinates>
            -96.693715,17.047276,0
          </coordinates>
        </Point>
      </Placemark>
      <Placemark>
        <name>Crucero del Rosario</name>
        <description>17.0481471,-96.6946474</description>
        <styleUrl>#icon-1532-7CB342</styleUrl>
        <Point>
          <coordinates>
            -96.694647,17.048147,0
          </coordinates>
        </Point>
      </Placemark>
      <Placemark>
        <name>Rosa Morada</name>
        <description>17.0488019,-96.6969782</description>
        <styleUrl>#icon-1532-7CB342</styleUrl>
        <Point>
          <coordinates>
            -96.696978,17.048802,0
          </coordinates>
        </Point>
      </Placemark>
      <Placemark>
        <name>Emiliano Zapata</name>
        <description>17.0494782,-96.6991658</description>
        <styleUrl>#icon-1532-7CB342</styleUrl>
        <Point>
          <coordinates>
            -96.699166,17.049478,0
          </coordinates>
        </Point>
      </Placemark>
      <Placemark>
        <name>Esc. Sec. Tec. 139</name>
        <description>17.0502173,-96.7029169</description>
        <styleUrl>#icon-1532-7CB342</styleUrl>
        <Point>
          <coordinates>
            -96.7033193,17.0503221,0
          </coordinates>
        </Point>
      </Placemark>
      <Placemark>
        <name>Reforma Agraria</name>
        <description>17.051283,-96.7054382</description>
        <styleUrl>#icon-1532-7CB342</styleUrl>
        <Point>
          <coordinates>
            -96.705438,17.051283,0
          </coordinates>
        </Point>
      </Placemark>
      <Placemark>
        <name>Prolongación la Noria</name>
        <description>17.0529223,-96.7065183</description>
        <styleUrl>#icon-1532-7CB342</styleUrl>
        <Point>
          <coordinates>
            -96.7064939,17.0529656,0
          </coordinates>
        </Point>
      </Placemark>
      <Placemark>
        <name>Colón</name>
        <description>17.0559819,-96.7086139</description>
        <styleUrl>#icon-1532-7CB342</styleUrl>
        <Point>
          <coordinates>
            -96.708614,17.055982,0
          </coordinates>
        </Point>
      </Placemark>
      <Placemark>
        <name>16 de Septiembre</name>
        <description>17.0573984,-96.7095361</description>
        <styleUrl>#icon-1532-7CB342</styleUrl>
        <Point>
          <coordinates>
            -96.709536,17.057398,0
          </coordinates>
        </Point>
      </Placemark>
      <Placemark>
        <name>Mariano Azuela</name>
        <description>17.05623 -96.71095</description>
        <styleUrl>#icon-1532-7CB342</styleUrl>
        <Point>
          <coordinates>
            -96.71095,17.05623,0
          </coordinates>
        </Point>
      </Placemark>
      <Placemark>
        <name>Crucero de 5 Señores</name>
        <description>17.0545778 -96.7126534</description>
        <styleUrl>#icon-1532-7CB342</styleUrl>
        <Point>
          <coordinates>
            -96.7127549,17.0545934,0
          </coordinates>
        </Point>
      </Placemark>
      <Placemark>
        <name>Eclipse 70</name>
        <description>17.05430138 -96.71387114</description>
        <styleUrl>#icon-1532-7CB342</styleUrl>
        <Point>
          <coordinates>
            -96.713871,17.054301,0
          </coordinates>
        </Point>
      </Placemark>
      <Placemark>
        <name>Emiliano Zapata</name>
        <description>17.0545889,-96.7159921</description>
        <styleUrl>#icon-1532-7CB342</styleUrl>
        <Point>
          <coordinates>
            -96.715992,17.054589,0
          </coordinates>
        </Point>
      </Placemark>
      <Placemark>
        <name>González Ortega</name>
        <description>17.0551499,-96.7187952</description>
        <styleUrl>#icon-1532-7CB342</styleUrl>
        <Point>
          <coordinates>
            -96.718795,17.05515,0
          </coordinates>
        </Point>
      </Placemark>
      <Placemark>
        <name>Manuel Doblado</name>
        <description>17.0563037,-96.7205431</description>
        <styleUrl>#icon-1532-7CB342</styleUrl>
        <Point>
          <coordinates>
            -96.720543,17.056304,0
          </coordinates>
        </Point>
      </Placemark>
      <Placemark>
        <name>Fiallo</name>
        <description>17.0568631,-96.7234598</description>
        <styleUrl>#icon-1532-7CB342</styleUrl>
        <Point>
          <coordinates>
            -96.72346,17.056863,0
          </coordinates>
        </Point>
      </Placemark>
      <Placemark>
        <name>Bustamante</name>
        <description>17.0572651,-96.7253806</description>
        <styleUrl>#icon-1532-7CB342</styleUrl>
        <Point>
          <coordinates>
            -96.725381,17.057265,0
          </coordinates>
        </Point>
      </Placemark>
      <Placemark>
        <name>20 de Noviembre</name>
        <description>17.05762 -96.7273</description>
        <styleUrl>#icon-1532-7CB342</styleUrl>
        <Point>
          <coordinates>
            -96.7273,17.05762,0
          </coordinates>
        </Point>
      </Placemark>
      <Placemark>
        <name>Mier y Terán</name>
        <description>17.058162,-96.73016</description>
        <styleUrl>#icon-1532-7CB342</styleUrl>
        <Point>
          <coordinates>
            -96.73016,17.058162,0
          </coordinates>
        </Point>
      </Placemark>
      <Placemark>
        <name>Mina</name>
        <description>17.0582748,-96.7311413</description>
        <styleUrl>#icon-1532-7CB342</styleUrl>
        <Point>
          <coordinates>
            -96.731141,17.058275,0
          </coordinates>
        </Point>
      </Placemark>
      <Placemark>
        <name>Guadalupe Victoria</name>
        <description>17.060573 -96.732024</description>
        <styleUrl>#icon-1532-7CB342</styleUrl>
        <Point>
          <coordinates>
            -96.732024,17.060573,0
          </coordinates>
        </Point>
      </Placemark>
      <Placemark>
        <name>Huzares</name>
        <description>17.0634757, -96.7354014</description>
        <styleUrl>#icon-1532-7CB342</styleUrl>
        <Point>
          <coordinates>
            -96.735401,17.063476,0
          </coordinates>
        </Point>
      </Placemark>
      <Placemark>
        <name>Parque Francisco I. Madero</name>
        <description>17.06624 -96.73542</description>
        <styleUrl>#icon-1532-7CB342</styleUrl>
        <Point>
          <coordinates>
            -96.73542,17.06624,0
          </coordinates>
        </Point>
      </Placemark>
      <Placemark>
        <name>Ignacio Rayón</name>
        <description>17.06814 -96.73547</description>
        <styleUrl>#icon-1532-7CB342</styleUrl>
        <Point>
          <coordinates>
            -96.73547,17.06814,0
          </coordinates>
        </Point>
      </Placemark>
      <Placemark>
        <name>Alfonso Pérez Gasga</name>
        <description>17.0709 -96.73661</description>
        <styleUrl>#icon-1532-7CB342</styleUrl>
        <Point>
          <coordinates>
            -96.73661,17.0709,0
          </coordinates>
        </Point>
      </Placemark>
      <Placemark>
        <name>Montes de Oca</name>
        <description>17.07368 -96.73811</description>
        <styleUrl>#icon-1532-7CB342</styleUrl>
        <Point>
          <coordinates>
            -96.73811,17.07368,0
          </coordinates>
        </Point>
      </Placemark>
      <Placemark>
        <name>Panteón del Ex Marquesado</name>
        <description>17.07512 -96.73907</description>
        <styleUrl>#icon-1532-7CB342</styleUrl>
        <Point>
          <coordinates>
            -96.73907,17.07512,0
          </coordinates>
        </Point>
      </Placemark>
      <Placemark>
        <name>Priv. de Margaritas</name>
        <description>17.078073 -96.740557</description>
        <styleUrl>#icon-1532-7CB342</styleUrl>
        <Point>
          <coordinates>
            -96.740557,17.078073,0
          </coordinates>
        </Point>
      </Placemark>
      <Placemark>
        <name>Momento a la Madre</name>
        <description>17.0794 -96.74129</description>
        <styleUrl>#icon-1532-7CB342</styleUrl>
        <Point>
          <coordinates>
            -96.74129,17.0794,0
          </coordinates>
        </Point>
      </Placemark>
      <Placemark>
        <name>Cuahutémoc</name>
        <description>17.082718 -96.7436292</description>
        <styleUrl>#icon-1532-7CB342</styleUrl>
        <Point>
          <coordinates>
            -96.743629,17.082718,0
          </coordinates>
        </Point>
      </Placemark>
      <Placemark>
        <name>Norte</name>
        <description>17.087391 -96.745519</description>
        <styleUrl>#icon-1532-7CB342</styleUrl>
        <Point>
          <coordinates>
            -96.745519,17.087391,0
          </coordinates>
        </Point>
      </Placemark>
      <Placemark>
        <name>Niidxi</name>
        <description>17.0900134 -96.746781</description>
        <styleUrl>#icon-1532-7CB342</styleUrl>
        <Point>
          <coordinates>
            -96.746781,17.090013,0
          </coordinates>
        </Point>
      </Placemark>
      <Placemark>
        <name>Esc. Sec. Tec. 248</name>
        <description>17.0921213,-96.7473051</description>
        <styleUrl>#icon-1532-7CB342</styleUrl>
        <Point>
          <coordinates>
            -96.747305,17.092121,0
          </coordinates>
        </Point>
      </Placemark>
      <Placemark>
        <name>Nudo Mixteco</name>
        <description>17.0929871,-96.7444378</description>
        <styleUrl>#icon-1532-7CB342</styleUrl>
        <Point>
          <coordinates>
            -96.744438,17.092987,0
          </coordinates>
        </Point>
      </Placemark>
      <Placemark>
        <name>Cerro Azul</name>
        <description>17.0922302,-96.7433294</description>
        <styleUrl>#icon-1532-7CB342</styleUrl>
        <Point>
          <coordinates>
            -96.743329,17.09223,0
          </coordinates>
        </Point>
      </Placemark>
      <Placemark>
        <name>Mirador</name>
        <description>17.0936534,-96.7415411</description>
        <styleUrl>#icon-1532-7CB342</styleUrl>
        <Point>
          <coordinates>
            -96.741541,17.093653,0
          </coordinates>
        </Point>
      </Placemark>
      <Placemark>
        <name>Niño Artillero</name>
        <description>17.0961349,-96.7413895</description>
        <styleUrl>#icon-1532-7CB342</styleUrl>
        <Point>
          <coordinates>
            -96.74139,17.096135,0
          </coordinates>
        </Point>
      </Placemark>
      <Placemark>
        <name>Onix Onice</name>
        <description>17.0958778,-96.7434334</description>
        <styleUrl>#icon-1532-7CB342</styleUrl>
        <Point>
          <coordinates>
            -96.743433,17.095878,0
          </coordinates>
        </Point>
      </Placemark>
      <Placemark>
        <name>Coral</name>
        <description>17.0968562,-96.744606</description>
        <styleUrl>#icon-1532-7CB342</styleUrl>
        <Point>
          <coordinates>
            -96.744606,17.096856,0
          </coordinates>
        </Point>
      </Placemark>
      <Placemark>
        <name>Azabache</name>
        <description>17.0973711,-96.7426605</description>
        <styleUrl>#icon-1532-7CB342</styleUrl>
        <Point>
          <coordinates>
            -96.74266,17.097371,0
          </coordinates>
        </Point>
      </Placemark>
      <Placemark>
        <name>Perla</name>
        <description>17.0988528,-96.7432376</description>
        <styleUrl>#icon-1532-7CB342</styleUrl>
        <Point>
          <coordinates>
            -96.743238,17.098853,0
          </coordinates>
        </Point>
      </Placemark>
      <Placemark>
        <name>Base Bugambilias</name>
        <description>17.1008003,-96.7432336</description>
        <styleUrl>#icon-1532-7CB342</styleUrl>
        <Point>
          <coordinates>
            -96.743234,17.1008,0
          </coordinates>
        </Point>
      </Placemark>
    </Folder>
  </Document>
</kml>
