<?xml version="1.0" encoding="UTF-8"?>
<kml xmlns="http://www.opengis.net/kml/2.2">
  <Document>
    <name>Ruta RA17 Bakku Nunni: Monte Albán –  Símbolos Patrios</name>
    <description/>
    <Style id="icon-1532-0288D1-normal">
      <IconStyle>
        <color>ffd18802</color>
        <scale>1</scale>
        <Icon>
          <href>https://www.gstatic.com/mapspro/images/stock/503-wht-blank_maps.png</href>
        </Icon>
      </IconStyle>
      <LabelStyle>
        <scale>0</scale>
      </LabelStyle>
    </Style>
    <Style id="icon-1532-0288D1-highlight">
      <IconStyle>
        <color>ffd18802</color>
        <scale>1</scale>
        <Icon>
          <href>https://www.gstatic.com/mapspro/images/stock/503-wht-blank_maps.png</href>
        </Icon>
      </IconStyle>
      <LabelStyle>
        <scale>1</scale>
      </LabelStyle>
    </Style>
    <StyleMap id="icon-1532-0288D1">
      <Pair>
        <key>normal</key>
        <styleUrl>#icon-1532-0288D1-normal</styleUrl>
      </Pair>
      <Pair>
        <key>highlight</key>
        <styleUrl>#icon-1532-0288D1-highlight</styleUrl>
      </Pair>
    </StyleMap>
    <Style id="icon-1532-0288D1-nodesc-normal">
      <IconStyle>
        <color>ffd18802</color>
        <scale>1</scale>
        <Icon>
          <href>https://www.gstatic.com/mapspro/images/stock/503-wht-blank_maps.png</href>
        </Icon>
      </IconStyle>
      <LabelStyle>
        <scale>0</scale>
      </LabelStyle>
      <BalloonStyle>
        <text><![CDATA[<h3>$[name]</h3>]]></text>
      </BalloonStyle>
    </Style>
    <Style id="icon-1532-0288D1-nodesc-highlight">
      <IconStyle>
        <color>ffd18802</color>
        <scale>1</scale>
        <Icon>
          <href>https://www.gstatic.com/mapspro/images/stock/503-wht-blank_maps.png</href>
        </Icon>
      </IconStyle>
      <LabelStyle>
        <scale>1</scale>
      </LabelStyle>
      <BalloonStyle>
        <text><![CDATA[<h3>$[name]</h3>]]></text>
      </BalloonStyle>
    </Style>
    <StyleMap id="icon-1532-0288D1-nodesc">
      <Pair>
        <key>normal</key>
        <styleUrl>#icon-1532-0288D1-nodesc-normal</styleUrl>
      </Pair>
      <Pair>
        <key>highlight</key>
        <styleUrl>#icon-1532-0288D1-nodesc-highlight</styleUrl>
      </Pair>
    </StyleMap>
    <Style id="icon-1532-7CB342-normal">
      <IconStyle>
        <color>ff42b37c</color>
        <scale>1</scale>
        <Icon>
          <href>https://www.gstatic.com/mapspro/images/stock/503-wht-blank_maps.png</href>
        </Icon>
      </IconStyle>
      <LabelStyle>
        <scale>0</scale>
      </LabelStyle>
    </Style>
    <Style id="icon-1532-7CB342-highlight">
      <IconStyle>
        <color>ff42b37c</color>
        <scale>1</scale>
        <Icon>
          <href>https://www.gstatic.com/mapspro/images/stock/503-wht-blank_maps.png</href>
        </Icon>
      </IconStyle>
      <LabelStyle>
        <scale>1</scale>
      </LabelStyle>
    </Style>
    <StyleMap id="icon-1532-7CB342">
      <Pair>
        <key>normal</key>
        <styleUrl>#icon-1532-7CB342-normal</styleUrl>
      </Pair>
      <Pair>
        <key>highlight</key>
        <styleUrl>#icon-1532-7CB342-highlight</styleUrl>
      </Pair>
    </StyleMap>
    <Style id="icon-1532-7CB342-nodesc-normal">
      <IconStyle>
        <color>ff42b37c</color>
        <scale>1</scale>
        <Icon>
          <href>https://www.gstatic.com/mapspro/images/stock/503-wht-blank_maps.png</href>
        </Icon>
      </IconStyle>
      <LabelStyle>
        <scale>0</scale>
      </LabelStyle>
      <BalloonStyle>
        <text><![CDATA[<h3>$[name]</h3>]]></text>
      </BalloonStyle>
    </Style>
    <Style id="icon-1532-7CB342-nodesc-highlight">
      <IconStyle>
        <color>ff42b37c</color>
        <scale>1</scale>
        <Icon>
          <href>https://www.gstatic.com/mapspro/images/stock/503-wht-blank_maps.png</href>
        </Icon>
      </IconStyle>
      <LabelStyle>
        <scale>1</scale>
      </LabelStyle>
      <BalloonStyle>
        <text><![CDATA[<h3>$[name]</h3>]]></text>
      </BalloonStyle>
    </Style>
    <StyleMap id="icon-1532-7CB342-nodesc">
      <Pair>
        <key>normal</key>
        <styleUrl>#icon-1532-7CB342-nodesc-normal</styleUrl>
      </Pair>
      <Pair>
        <key>highlight</key>
        <styleUrl>#icon-1532-7CB342-nodesc-highlight</styleUrl>
      </Pair>
    </StyleMap>
    <Style id="icon-1532-DB4436-normal">
      <IconStyle>
        <color>ff3644db</color>
        <scale>1</scale>
        <Icon>
          <href>https://www.gstatic.com/mapspro/images/stock/503-wht-blank_maps.png</href>
        </Icon>
      </IconStyle>
      <LabelStyle>
        <scale>0</scale>
      </LabelStyle>
    </Style>
    <Style id="icon-1532-DB4436-highlight">
      <IconStyle>
        <color>ff3644db</color>
        <scale>1</scale>
        <Icon>
          <href>https://www.gstatic.com/mapspro/images/stock/503-wht-blank_maps.png</href>
        </Icon>
      </IconStyle>
      <LabelStyle>
        <scale>1</scale>
      </LabelStyle>
    </Style>
    <StyleMap id="icon-1532-DB4436">
      <Pair>
        <key>normal</key>
        <styleUrl>#icon-1532-DB4436-normal</styleUrl>
      </Pair>
      <Pair>
        <key>highlight</key>
        <styleUrl>#icon-1532-DB4436-highlight</styleUrl>
      </Pair>
    </StyleMap>
    <Style id="icon-1532-DB4436-nodesc-normal">
      <IconStyle>
        <color>ff3644db</color>
        <scale>1</scale>
        <Icon>
          <href>https://www.gstatic.com/mapspro/images/stock/503-wht-blank_maps.png</href>
        </Icon>
      </IconStyle>
      <LabelStyle>
        <scale>0</scale>
      </LabelStyle>
      <BalloonStyle>
        <text><![CDATA[<h3>$[name]</h3>]]></text>
      </BalloonStyle>
    </Style>
    <Style id="icon-1532-DB4436-nodesc-highlight">
      <IconStyle>
        <color>ff3644db</color>
        <scale>1</scale>
        <Icon>
          <href>https://www.gstatic.com/mapspro/images/stock/503-wht-blank_maps.png</href>
        </Icon>
      </IconStyle>
      <LabelStyle>
        <scale>1</scale>
      </LabelStyle>
      <BalloonStyle>
        <text><![CDATA[<h3>$[name]</h3>]]></text>
      </BalloonStyle>
    </Style>
    <StyleMap id="icon-1532-DB4436-nodesc">
      <Pair>
        <key>normal</key>
        <styleUrl>#icon-1532-DB4436-nodesc-normal</styleUrl>
      </Pair>
      <Pair>
        <key>highlight</key>
        <styleUrl>#icon-1532-DB4436-nodesc-highlight</styleUrl>
      </Pair>
    </StyleMap>
    <Style id="icon-1574-7CB342-normal">
      <IconStyle>
        <color>ff42b37c</color>
        <scale>1</scale>
        <Icon>
          <href>https://www.gstatic.com/mapspro/images/stock/503-wht-blank_maps.png</href>
        </Icon>
      </IconStyle>
      <LabelStyle>
        <scale>0</scale>
      </LabelStyle>
    </Style>
    <Style id="icon-1574-7CB342-highlight">
      <IconStyle>
        <color>ff42b37c</color>
        <scale>1</scale>
        <Icon>
          <href>https://www.gstatic.com/mapspro/images/stock/503-wht-blank_maps.png</href>
        </Icon>
      </IconStyle>
      <LabelStyle>
        <scale>1</scale>
      </LabelStyle>
    </Style>
    <StyleMap id="icon-1574-7CB342">
      <Pair>
        <key>normal</key>
        <styleUrl>#icon-1574-7CB342-normal</styleUrl>
      </Pair>
      <Pair>
        <key>highlight</key>
        <styleUrl>#icon-1574-7CB342-highlight</styleUrl>
      </Pair>
    </StyleMap>
    <Style id="line-0288D1-5000-nodesc-normal">
      <LineStyle>
        <color>ffd18802</color>
        <width>5</width>
      </LineStyle>
      <BalloonStyle>
        <text><![CDATA[<h3>$[name]</h3>]]></text>
      </BalloonStyle>
    </Style>
    <Style id="line-0288D1-5000-nodesc-highlight">
      <LineStyle>
        <color>ffd18802</color>
        <width>7.5</width>
      </LineStyle>
      <BalloonStyle>
        <text><![CDATA[<h3>$[name]</h3>]]></text>
      </BalloonStyle>
    </Style>
    <StyleMap id="line-0288D1-5000-nodesc">
      <Pair>
        <key>normal</key>
        <styleUrl>#line-0288D1-5000-nodesc-normal</styleUrl>
      </Pair>
      <Pair>
        <key>highlight</key>
        <styleUrl>#line-0288D1-5000-nodesc-highlight</styleUrl>
      </Pair>
    </StyleMap>
    <Style id="line-7CB342-5000-nodesc-normal">
      <LineStyle>
        <color>ff42b37c</color>
        <width>5</width>
      </LineStyle>
      <BalloonStyle>
        <text><![CDATA[<h3>$[name]</h3>]]></text>
      </BalloonStyle>
    </Style>
    <Style id="line-7CB342-5000-nodesc-highlight">
      <LineStyle>
        <color>ff42b37c</color>
        <width>7.5</width>
      </LineStyle>
      <BalloonStyle>
        <text><![CDATA[<h3>$[name]</h3>]]></text>
      </BalloonStyle>
    </Style>
    <StyleMap id="line-7CB342-5000-nodesc">
      <Pair>
        <key>normal</key>
        <styleUrl>#line-7CB342-5000-nodesc-normal</styleUrl>
      </Pair>
      <Pair>
        <key>highlight</key>
        <styleUrl>#line-7CB342-5000-nodesc-highlight</styleUrl>
      </Pair>
    </StyleMap>
    <Folder>
      <name>RECORRIDO DE IDA</name>
      <Placemark>
        <name>IDA</name>
        <styleUrl>#line-0288D1-5000-nodesc</styleUrl>
        <LineString>
          <tessellate>1</tessellate>
          <coordinates>
            -96.712783,17.031681,0
            -96.712756,17.031681,0
            -96.712726,17.031701,0
            -96.712179,17.030952,0
            -96.711989,17.030975,0
            -96.712659,17.031986,0
            -96.713453,17.03305,0
            -96.713668,17.033376,0
            -96.713673,17.033508,0
            -96.71365,17.033672,0
            -96.713375,17.034079,0
            -96.713112,17.034447,0
            -96.712851,17.034906,0
            -96.712541,17.035346,0
            -96.712112,17.035984,0
            -96.711838,17.03634,0
            -96.711605,17.036684,0
            -96.711251,17.037143,0
            -96.71094,17.037605,0
            -96.710776,17.037859,0
            -96.710666,17.038184,0
            -96.710645,17.038613,0
            -96.710688,17.038908,0
            -96.710913,17.039341,0
            -96.711492,17.040118,0
            -96.711846,17.04051,0
            -96.7122,17.040995,0
            -96.712474,17.041385,0
            -96.713032,17.042023,0
            -96.713322,17.042416,0
            -96.713888,17.043162,0
            -96.714148,17.043636,0
            -96.714279,17.044121,0
            -96.714185,17.045172,0
            -96.713956,17.046412,0
            -96.713885,17.046939,0
            -96.713762,17.047837,0
            -96.713381,17.05051,0
            -96.712992,17.052713,0
            -96.712883,17.053364,0
            -96.712857,17.053457,0
            -96.712833,17.053761,0
            -96.71297,17.054162,0
            -96.713128,17.054305,0
            -96.713483,17.054178,0
            -96.71434,17.053901,0
            -96.715254,17.053669,0
            -96.716401,17.053373,0
            -96.717965,17.053039,0
            -96.719506,17.052636,0
            -96.721938,17.052023,0
            -96.723415,17.051627,0
            -96.724555,17.051318,0
            -96.726332,17.050932,0
            -96.727061,17.050687,0
            -96.72741,17.050504,0
            -96.729101,17.050037,0
            -96.730948,17.049484,0
            -96.731026,17.049468,0
            -96.731168,17.049545,0
            -96.73135,17.049581,0
            -96.732243,17.049883,0
            -96.73256,17.0501,0
            -96.73345,17.050609,0
            -96.734538,17.051264,0
            -96.73519,17.051359,0
            -96.736019,17.05132,0
            -96.736829,17.05122,0
            -96.737326,17.051181,0
            -96.737771,17.05121,0
            -96.738443,17.051412,0
            -96.739141,17.051723,0
            -96.73996,17.052105,0
            -96.74034,17.05224,0
            -96.740582,17.052269,0
            -96.741358,17.052218,0
            -96.741836,17.05218,0
            -96.742184,17.05225,0
            -96.742347,17.052346,0
            -96.742556,17.052555,0
            -96.742697,17.052795,0
            -96.742944,17.053237,0
            -96.743246,17.053534,0
            -96.74369,17.053812,0
            -96.744041,17.054101,0
            -96.7443,17.054382,0
            -96.744819,17.054966,0
            -96.745536,17.055681,0
            -96.745917,17.056116,0
            -96.746348,17.056455,0
            -96.746702,17.056631,0
            -96.747067,17.056677,0
            -96.74745,17.056625,0
            -96.747784,17.056458,0
            -96.7482,17.056103,0
            -96.74838,17.055867,0
            -96.748799,17.055226,0
            -96.749069,17.054736,0
            -96.74943,17.054544,0
            -96.749558,17.054407,0
            -96.749845,17.05395,0
            -96.750065,17.053599,0
            -96.750183,17.053326,0
            -96.750287,17.053205,0
            -96.750344,17.053206,0
            -96.750421,17.053254,0
            -96.75067,17.053663,0
            -96.750818,17.053744,0
            -96.750953,17.053777,0
            -96.751127,17.053753,0
            -96.751241,17.053709,0
            -96.751385,17.053612,0
            -96.751499,17.053468,0
            -96.75189,17.053178,0
            -96.752073,17.053021,0
            -96.752148,17.052895,0
            -96.752169,17.052759,0
            -96.752149,17.05261,0
            -96.752026,17.052245,0
            -96.751968,17.052091,0
            -96.751972,17.051996,0
            -96.752034,17.051942,0
            -96.752163,17.051956,0
            -96.752336,17.052072,0
            -96.752487,17.052265,0
            -96.752655,17.052545,0
            -96.752744,17.052623,0
            -96.752953,17.052659,0
            -96.75315,17.052635,0
            -96.753458,17.052564,0
            -96.753568,17.052595,0
            -96.753578,17.052659,0
            -96.753504,17.052817,0
            -96.753449,17.052913,0
            -96.753429,17.053008,0
            -96.753429,17.053227,0
            -96.753338,17.053544,0
            -96.753351,17.053808,0
            -96.753327,17.054072,0
            -96.753388,17.054232,0
            -96.753578,17.054485,0
            -96.753655,17.054672,0
            -96.753735,17.054917,0
            -96.753836,17.055187,0
            -96.753981,17.055307,0
            -96.754122,17.055391,0
            -96.754455,17.055521,0
            -96.754632,17.055481,0
            -96.754724,17.05542,0
            -96.754838,17.055307,0
            -96.75499,17.055012,0
            -96.755092,17.054596,0
            -96.755194,17.054468,0
            -96.755332,17.054437,0
            -96.75576,17.054585,0
            -96.756281,17.05463,0
            -96.756334,17.054696,0
            -96.756328,17.055087,0
            -96.756399,17.055214,0
            -96.756834,17.055564,0
            -96.75727,17.055699,0
            -96.757621,17.055846,0
            -96.757785,17.055859,0
            -96.757872,17.055938,0
            -96.758049,17.05633,0
            -96.75815,17.056446,0
            -96.75833,17.056549,0
            -96.758529,17.056544,0
            -96.758552,17.056538,0
            -96.758544,17.056445,0
          </coordinates>
        </LineString>
      </Placemark>
      <Placemark>
        <name>BASE WALMART SÍMBOLOS PATRIOS</name>
        <styleUrl>#icon-1532-DB4436-nodesc</styleUrl>
        <Point>
          <coordinates>
            -96.71278,17.03166,0
          </coordinates>
        </Point>
      </Placemark>
      <Placemark>
        <name>CARLOS GRACIDA</name>
        <styleUrl>#icon-1532-0288D1-nodesc</styleUrl>
        <Point>
          <coordinates>
            -96.713464,17.03312,0
          </coordinates>
        </Point>
      </Placemark>
      <Placemark>
        <name>CALA SANZ</name>
        <description>17.035725	-96.71215</description>
        <styleUrl>#icon-1532-0288D1</styleUrl>
        <Point>
          <coordinates>
            -96.71215,17.035725,0
          </coordinates>
        </Point>
      </Placemark>
      <Placemark>
        <name>PLAZA DEL VALLE</name>
        <description>17.040105 -96.711449</description>
        <styleUrl>#icon-1532-0288D1</styleUrl>
        <Point>
          <coordinates>
            -96.711449,17.040105,0
          </coordinates>
        </Point>
      </Placemark>
      <Placemark>
        <name>PLAZA OAXACA</name>
        <description>17.043205 -96.713851</description>
        <styleUrl>#icon-1532-0288D1</styleUrl>
        <Point>
          <coordinates>
            -96.713851,17.043205,0
          </coordinates>
        </Point>
      </Placemark>
      <Placemark>
        <name>FACULTAD DE ARQUITECTURA</name>
        <description>17.046494 -96.713895</description>
        <styleUrl>#icon-1532-0288D1</styleUrl>
        <Point>
          <coordinates>
            -96.713895,17.046494,0
          </coordinates>
        </Point>
      </Placemark>
      <Placemark>
        <name>FACULTAD DE ENFERMERIA</name>
        <description>17.048614 -96.713616</description>
        <styleUrl>#icon-1532-0288D1</styleUrl>
        <Point>
          <coordinates>
            -96.713616,17.048614,0
          </coordinates>
        </Point>
      </Placemark>
      <Placemark>
        <name>RECTORIA</name>
        <description>17.050926 -96.713288</description>
        <styleUrl>#icon-1532-0288D1</styleUrl>
        <Point>
          <coordinates>
            -96.713288,17.050926,0
          </coordinates>
        </Point>
      </Placemark>
      <Placemark>
        <name>CRUCERO DE 5 SEÑORES</name>
        <description>17.053621 -96.712837</description>
        <styleUrl>#icon-1532-0288D1</styleUrl>
        <Point>
          <coordinates>
            -96.712837,17.053621,0
          </coordinates>
        </Point>
      </Placemark>
      <Placemark>
        <name>EMILIANO ZAPATA</name>
        <description>17.0535 -96.715988</description>
        <styleUrl>#icon-1532-0288D1</styleUrl>
        <Point>
          <coordinates>
            -96.715988,17.0535,0
          </coordinates>
        </Point>
      </Placemark>
      <Placemark>
        <name>GONZALEZ ORTEGA</name>
        <description>17.052646 -96.719456</description>
        <styleUrl>#icon-1532-0288D1</styleUrl>
        <Point>
          <coordinates>
            -96.719456,17.052646,0
          </coordinates>
        </Point>
      </Placemark>
      <Placemark>
        <name>XICOTENCATL</name>
        <description>17.051918 -96.722448</description>
        <styleUrl>#icon-1532-0288D1</styleUrl>
        <Point>
          <coordinates>
            -96.722448,17.051918,0
          </coordinates>
        </Point>
      </Placemark>
      <Placemark>
        <name>CFE PERIFERICO</name>
        <description>17.051283 -96.724937</description>
        <styleUrl>#icon-1532-0288D1</styleUrl>
        <Point>
          <coordinates>
            -96.724937,17.051283,0
          </coordinates>
        </Point>
      </Placemark>
      <Placemark>
        <name>MIGUEL CABRERA</name>
        <description>17.050438 -96.728004</description>
        <styleUrl>#icon-1532-0288D1</styleUrl>
        <Point>
          <coordinates>
            -96.728004,17.050438,0
          </coordinates>
        </Point>
      </Placemark>
      <Placemark>
        <name>PARQUE PRIMAVERA OAXAQUEÑA CHO NDOBÁ ACCESO SUR</name>
        <styleUrl>#icon-1532-0288D1-nodesc</styleUrl>
        <Point>
          <coordinates>
            -96.731289,17.049595,0
          </coordinates>
        </Point>
      </Placemark>
      <Placemark>
        <name>CUAUHTEMOC</name>
        <description>17.050939 -96.733995</description>
        <styleUrl>#icon-1532-0288D1</styleUrl>
        <Point>
          <coordinates>
            -96.733995,17.050939,0
          </coordinates>
        </Point>
      </Placemark>
      <Placemark>
        <name>DONAJI</name>
        <description>DONAJI</description>
        <styleUrl>#icon-1532-0288D1</styleUrl>
        <Point>
          <coordinates>
            -96.73681,17.05124,0
          </coordinates>
        </Point>
      </Placemark>
      <Placemark>
        <name>PLAZUELA DE CHAPULTEPEC</name>
        <description>PLAZUELA DE CHAPULTEPEC</description>
        <styleUrl>#icon-1532-0288D1</styleUrl>
        <Point>
          <coordinates>
            -96.73986,17.05211,0
          </coordinates>
        </Point>
      </Placemark>
      <Placemark>
        <name>ESC. PRIMARIA NIÑOS HEROES</name>
        <description>ESC. PRIMARIA NIÑOS HEROES</description>
        <styleUrl>#icon-1532-0288D1</styleUrl>
        <Point>
          <coordinates>
            -96.74314,17.05348,0
          </coordinates>
        </Point>
      </Placemark>
      <Placemark>
        <name>MONTE CRISTO</name>
        <description>MONTE  CRISTO</description>
        <styleUrl>#icon-1532-0288D1</styleUrl>
        <Point>
          <coordinates>
            -96.745088,17.055282,0
          </coordinates>
        </Point>
      </Placemark>
      <Placemark>
        <name>PETELA</name>
        <styleUrl>#icon-1532-0288D1-nodesc</styleUrl>
        <Point>
          <coordinates>
            -96.748545,17.055536,0
          </coordinates>
        </Point>
      </Placemark>
      <Placemark>
        <name>DALACHI</name>
        <description>DALACHI</description>
        <styleUrl>#icon-1532-0288D1</styleUrl>
        <Point>
          <coordinates>
            -96.75029,17.05338,0
          </coordinates>
        </Point>
      </Placemark>
      <Placemark>
        <name>FARMACIA BIENESTAR SAN MARTIN</name>
        <description>FARMACIA BIENESTAR SAN MARTIN</description>
        <styleUrl>#icon-1532-0288D1</styleUrl>
        <Point>
          <coordinates>
            -96.753522,17.05257,0
          </coordinates>
        </Point>
      </Placemark>
      <Placemark>
        <name>LAS RAZAS</name>
        <description>LAS RAZAS</description>
        <styleUrl>#icon-1532-0288D1</styleUrl>
        <Point>
          <coordinates>
            -96.75374,17.05498,0
          </coordinates>
        </Point>
      </Placemark>
      <Placemark>
        <name>BASE C. AHUITZOTL</name>
        <description>BASE C. AHUITZOTL</description>
        <styleUrl>#icon-1532-DB4436</styleUrl>
        <Point>
          <coordinates>
            -96.75838,17.05644,0
          </coordinates>
        </Point>
      </Placemark>
    </Folder>
    <Folder>
      <name>RECORRIO DE REGRESO</name>
      <Placemark>
        <name>REGRESO</name>
        <styleUrl>#line-7CB342-5000-nodesc</styleUrl>
        <LineString>
          <tessellate>1</tessellate>
          <coordinates>
            -96.7585,17.05651,0
            -96.758511,17.05657,0
            -96.758334,17.05658,0
            -96.758147,17.056479,0
            -96.758059,17.056355,0
            -96.757963,17.056129,0
            -96.757899,17.05598,0
            -96.757807,17.055892,0
            -96.757764,17.055881,0
            -96.757617,17.055873,0
            -96.75722,17.055712,0
            -96.757078,17.055666,0
            -96.75688,17.055608,0
            -96.756826,17.055582,0
            -96.75655,17.055354,0
            -96.756426,17.055262,0
            -96.756336,17.055143,0
            -96.756356,17.05479,0
            -96.756342,17.054716,0
            -96.756299,17.054666,0
            -96.75626,17.054655,0
            -96.755768,17.054611,0
            -96.755621,17.054569,0
            -96.755394,17.054485,0
            -96.755322,17.054465,0
            -96.755219,17.05448,0
            -96.755131,17.054536,0
            -96.755045,17.054676,0
            -96.754967,17.054939,0
            -96.754914,17.055115,0
            -96.754797,17.055339,0
            -96.754666,17.055478,0
            -96.754596,17.05551,0
            -96.754498,17.055534,0
            -96.754415,17.055543,0
            -96.754195,17.055469,0
            -96.754044,17.055382,0
            -96.753943,17.055305,0
            -96.753879,17.055233,0
            -96.753798,17.055107,0
            -96.753723,17.054843,0
            -96.753631,17.054574,0
            -96.753433,17.054267,0
            -96.753359,17.054112,0
            -96.753362,17.054037,0
            -96.753384,17.053846,0
            -96.753372,17.053544,0
            -96.75346,17.053279,0
            -96.753454,17.053066,0
            -96.753514,17.052881,0
            -96.753604,17.052738,0
            -96.753582,17.052617,0
            -96.753476,17.052564,0
            -96.753122,17.052649,0
            -96.752899,17.052676,0
            -96.752734,17.052639,0
            -96.752651,17.052566,0
            -96.752507,17.052294,0
            -96.752333,17.052081,0
            -96.752169,17.05197,0
            -96.752014,17.051952,0
            -96.751948,17.05201,0
            -96.751902,17.052131,0
            -96.752131,17.052774,0
            -96.752062,17.052979,0
            -96.75187,17.053185,0
            -96.751648,17.053338,0
            -96.75153,17.053447,0
            -96.751455,17.053474,0
            -96.751328,17.053643,0
            -96.751129,17.053753,0
            -96.750911,17.053783,0
            -96.750697,17.053697,0
            -96.750533,17.053407,0
            -96.750395,17.053243,0
            -96.750276,17.053211,0
            -96.750138,17.053376,0
            -96.749837,17.053956,0
            -96.749424,17.054523,0
            -96.749283,17.054634,0
            -96.749151,17.0547,0
            -96.749028,17.054764,0
            -96.748691,17.055338,0
            -96.748534,17.055602,0
            -96.748208,17.056079,0
            -96.748133,17.056166,0
            -96.747882,17.056404,0
            -96.747454,17.056638,0
            -96.747146,17.056693,0
            -96.746884,17.056688,0
            -96.74666,17.056638,0
            -96.746388,17.056492,0
            -96.745912,17.056123,0
            -96.745717,17.05586,0
            -96.745059,17.055221,0
            -96.744426,17.054538,0
            -96.744078,17.054132,0
            -96.743719,17.053833,0
            -96.743557,17.053742,0
            -96.743267,17.05356,0
            -96.743014,17.053324,0
            -96.742627,17.052665,0
            -96.74252,17.05251,0
            -96.742363,17.05236,0
            -96.742213,17.05229,0
            -96.741855,17.052201,0
            -96.74143,17.052229,0
            -96.740604,17.052292,0
            -96.74029,17.052239,0
            -96.739957,17.05213,0
            -96.739356,17.051846,0
            -96.738896,17.051612,0
            -96.738404,17.051406,0
            -96.737798,17.051231,0
            -96.73755,17.05121,0
            -96.737083,17.05121,0
            -96.736457,17.051276,0
            -96.735817,17.051342,0
            -96.735208,17.051375,0
            -96.734955,17.051342,0
            -96.734577,17.051295,0
            -96.734363,17.05117,0
            -96.733914,17.050894,0
            -96.733662,17.050745,0
            -96.73253,17.050074,0
            -96.732026,17.04984,0
            -96.731559,17.04965,0
            -96.731031,17.049366,0
            -96.730741,17.049497,0
            -96.728786,17.050084,0
            -96.727142,17.050556,0
            -96.726479,17.050722,0
            -96.725811,17.05084,0
            -96.724663,17.051171,0
            -96.72343,17.051504,0
            -96.722327,17.051774,0
            -96.720173,17.052317,0
            -96.71852,17.052713,0
            -96.717189,17.053048,0
            -96.715593,17.053413,0
            -96.714668,17.053575,0
            -96.713143,17.053275,0
            -96.714482,17.043896,0
            -96.710861,17.038713,0
            -96.71081,17.038071,0
            -96.711145,17.03747,0
            -96.71152,17.036964,0
            -96.712076,17.036218,0
            -96.712722,17.035265,0
            -96.712982,17.034913,0
            -96.713082,17.034691,0
            -96.713639,17.033807,0
            -96.713771,17.033524,0
            -96.713849,17.033282,0
            -96.713336,17.032594,0
            -96.712736,17.031766,0
            -96.7128,17.031753,0
          </coordinates>
        </LineString>
      </Placemark>
      <Placemark>
        <name>BASE C. AHUITZOTL</name>
        <description>BASE C. AHUITZOTL</description>
        <styleUrl>#icon-1574-7CB342</styleUrl>
        <Point>
          <coordinates>
            -96.758477,17.05652,0
          </coordinates>
        </Point>
      </Placemark>
      <Placemark>
        <name>DONAJI</name>
        <styleUrl>#icon-1532-7CB342-nodesc</styleUrl>
        <Point>
          <coordinates>
            -96.753811,17.05507,0
          </coordinates>
        </Point>
      </Placemark>
      <Placemark>
        <name>FARMACIA DEL BIENESTAR SAN MARTIN</name>
        <styleUrl>#icon-1532-7CB342-nodesc</styleUrl>
        <Point>
          <coordinates>
            -96.753469,17.052657,0
          </coordinates>
        </Point>
      </Placemark>
      <Placemark>
        <name>LEOVAA</name>
        <styleUrl>#icon-1532-7CB342-nodesc</styleUrl>
        <Point>
          <coordinates>
            -96.750313,17.053342,0
          </coordinates>
        </Point>
      </Placemark>
      <Placemark>
        <name>HELADIO RAMIREZ</name>
        <styleUrl>#icon-1532-7CB342-nodesc</styleUrl>
        <Point>
          <coordinates>
            -96.748659,17.055484,0
          </coordinates>
        </Point>
      </Placemark>
      <Placemark>
        <name>UNIDAD HABITACIONAL RODRIGUEZ</name>
        <styleUrl>#icon-1532-7CB342-nodesc</styleUrl>
        <Point>
          <coordinates>
            -96.745836,17.055889,0
          </coordinates>
        </Point>
      </Placemark>
      <Placemark>
        <name>13 DE SEPTIEMBRE</name>
        <description>13 DE SEPTIEMBRE</description>
        <styleUrl>#icon-1532-7CB342</styleUrl>
        <Point>
          <coordinates>
            -96.743203,17.05338,0
          </coordinates>
        </Point>
      </Placemark>
      <Placemark>
        <name>GUADALUPE VICTORIA</name>
        <description>GUADALUPE VICTORIA</description>
        <styleUrl>#icon-1532-7CB342</styleUrl>
        <Point>
          <coordinates>
            -96.740265,17.052145,0
          </coordinates>
        </Point>
      </Placemark>
      <Placemark>
        <name>DONAJI</name>
        <description>DONAJI</description>
        <styleUrl>#icon-1532-7CB342</styleUrl>
        <Point>
          <coordinates>
            -96.73681,17.05112,0
          </coordinates>
        </Point>
      </Placemark>
      <Placemark>
        <name>JUAN DE LA BARRERA</name>
        <description>JUAN DE LA BARRERA</description>
        <styleUrl>#icon-1532-7CB342</styleUrl>
        <Point>
          <coordinates>
            -96.7335,17.05059,0
          </coordinates>
        </Point>
      </Placemark>
      <Placemark>
        <name>PARQUE PRIMAVERA OAXAQUEÑA CHO NDOBÁ ACCESO SUR</name>
        <styleUrl>#icon-1532-7CB342-nodesc</styleUrl>
        <Point>
          <coordinates>
            -96.731525,17.049572,0
          </coordinates>
        </Point>
      </Placemark>
      <Placemark>
        <name>PARQUE DEL AMOR</name>
        <description>PARQUE DEL AMOR</description>
        <styleUrl>#icon-1532-7CB342</styleUrl>
        <Point>
          <coordinates>
            -96.72908,17.0499,0
          </coordinates>
        </Point>
      </Placemark>
      <Placemark>
        <name>CFE PERIFERICO</name>
        <description>17.051026 -96.725124</description>
        <styleUrl>#icon-1532-7CB342</styleUrl>
        <Point>
          <coordinates>
            -96.725124,17.051026,0
          </coordinates>
        </Point>
      </Placemark>
      <Placemark>
        <name>XICOTENCATL</name>
        <description>17.051568 -96.72276</description>
        <styleUrl>#icon-1532-7CB342</styleUrl>
        <Point>
          <coordinates>
            -96.72276,17.051568,0
          </coordinates>
        </Point>
      </Placemark>
      <Placemark>
        <name>AV. EDUARDO MATA</name>
        <description>17.052274 -96.720051</description>
        <styleUrl>#icon-1532-7CB342</styleUrl>
        <Point>
          <coordinates>
            -96.720051,17.052274,0
          </coordinates>
        </Point>
      </Placemark>
      <Placemark>
        <name>CHEDRAHUI PERIFERICO</name>
        <description>17.053034 -96.716969</description>
        <styleUrl>#icon-1532-7CB342</styleUrl>
        <Point>
          <coordinates>
            -96.716969,17.053034,0
          </coordinates>
        </Point>
      </Placemark>
      <Placemark>
        <name>EL ROSARIO</name>
        <description>17.052934 -96.713251</description>
        <styleUrl>#icon-1532-7CB342</styleUrl>
        <Point>
          <coordinates>
            -96.713251,17.052934,0
          </coordinates>
        </Point>
      </Placemark>
      <Placemark>
        <name>RECTORIA CU</name>
        <description>17.050335 -96.713571</description>
        <styleUrl>#icon-1532-7CB342</styleUrl>
        <Point>
          <coordinates>
            -96.713571,17.050335,0
          </coordinates>
        </Point>
      </Placemark>
      <Placemark>
        <name>FACULTAD DE ENFERMERIA CU</name>
        <description>17.048665 -96.713911</description>
        <styleUrl>#icon-1532-7CB342</styleUrl>
        <Point>
          <coordinates>
            -96.713911,17.048665,0
          </coordinates>
        </Point>
      </Placemark>
      <Placemark>
        <name>CORPUS CRISTI</name>
        <description>17.045478 -96.71432</description>
        <styleUrl>#icon-1532-7CB342</styleUrl>
        <Point>
          <coordinates>
            -96.71432,17.045478,0
          </coordinates>
        </Point>
      </Placemark>
      <Placemark>
        <name>PLAZA OAXACA</name>
        <description>17.043676 -96.714482</description>
        <styleUrl>#icon-1532-7CB342</styleUrl>
        <Point>
          <coordinates>
            -96.714482,17.043676,0
          </coordinates>
        </Point>
      </Placemark>
      <Placemark>
        <name>PLAZA DEL VALLE</name>
        <description>17.040378 -96.711995</description>
        <styleUrl>#icon-1532-7CB342</styleUrl>
        <Point>
          <coordinates>
            -96.711995,17.040378,0
          </coordinates>
        </Point>
      </Placemark>
      <Placemark>
        <name>FAISAN</name>
        <description>17.037013 -96.711587</description>
        <styleUrl>#icon-1532-7CB342</styleUrl>
        <Point>
          <coordinates>
            -96.711587,17.037013,0
          </coordinates>
        </Point>
      </Placemark>
      <Placemark>
        <name>FRESNITO</name>
        <description>17.035718 -96.712436</description>
        <styleUrl>#icon-1532-7CB342</styleUrl>
        <Point>
          <coordinates>
            -96.712436,17.035718,0
          </coordinates>
        </Point>
      </Placemark>
      <Placemark>
        <name>GYM UNIVERSITARIO</name>
        <description>17.047007 -96.714157</description>
        <styleUrl>#icon-1532-7CB342</styleUrl>
        <Point>
          <coordinates>
            -96.714157,17.047007,0
          </coordinates>
        </Point>
      </Placemark>
      <Placemark>
        <name>BASE WALMART SÍMBOLOS PATRIOS</name>
        <description>BASE WALMART SÍMBOLOS PATRIOS</description>
        <styleUrl>#icon-1574-7CB342</styleUrl>
        <Point>
          <coordinates>
            -96.71278,17.03166,0
          </coordinates>
        </Point>
      </Placemark>
    </Folder>
  </Document>
</kml>
