<?xml version="1.0" encoding="UTF-8"?>
<kml xmlns="http://www.opengis.net/kml/2.2">
  <Document>
    <name>Ruta RA-01 Jnón: Esquipulas - Central de Abastos</name>
    <description/>
    <Style id="icon-1532-0288D1-normal">
      <IconStyle>
        <color>ffd18802</color>
        <scale>1</scale>
        <Icon>
          <href>https://www.gstatic.com/mapspro/images/stock/503-wht-blank_maps.png</href>
        </Icon>
      </IconStyle>
      <LabelStyle>
        <scale>0</scale>
      </LabelStyle>
    </Style>
    <Style id="icon-1532-0288D1-highlight">
      <IconStyle>
        <color>ffd18802</color>
        <scale>1</scale>
        <Icon>
          <href>https://www.gstatic.com/mapspro/images/stock/503-wht-blank_maps.png</href>
        </Icon>
      </IconStyle>
      <LabelStyle>
        <scale>1</scale>
      </LabelStyle>
    </Style>
    <StyleMap id="icon-1532-0288D1">
      <Pair>
        <key>normal</key>
        <styleUrl>#icon-1532-0288D1-normal</styleUrl>
      </Pair>
      <Pair>
        <key>highlight</key>
        <styleUrl>#icon-1532-0288D1-highlight</styleUrl>
      </Pair>
    </StyleMap>
    <Style id="icon-1532-7CB342-normal">
      <IconStyle>
        <color>ff42b37c</color>
        <scale>1</scale>
        <Icon>
          <href>https://www.gstatic.com/mapspro/images/stock/503-wht-blank_maps.png</href>
        </Icon>
      </IconStyle>
      <LabelStyle>
        <scale>0</scale>
      </LabelStyle>
    </Style>
    <Style id="icon-1532-7CB342-highlight">
      <IconStyle>
        <color>ff42b37c</color>
        <scale>1</scale>
        <Icon>
          <href>https://www.gstatic.com/mapspro/images/stock/503-wht-blank_maps.png</href>
        </Icon>
      </IconStyle>
      <LabelStyle>
        <scale>1</scale>
      </LabelStyle>
    </Style>
    <StyleMap id="icon-1532-7CB342">
      <Pair>
        <key>normal</key>
        <styleUrl>#icon-1532-7CB342-normal</styleUrl>
      </Pair>
      <Pair>
        <key>highlight</key>
        <styleUrl>#icon-1532-7CB342-highlight</styleUrl>
      </Pair>
    </StyleMap>
    <Style id="line-0288D1-4000-nodesc-normal">
      <LineStyle>
        <color>ffd18802</color>
        <width>4</width>
      </LineStyle>
      <BalloonStyle>
        <text><![CDATA[<h3>$[name]</h3>]]></text>
      </BalloonStyle>
    </Style>
    <Style id="line-0288D1-4000-nodesc-highlight">
      <LineStyle>
        <color>ffd18802</color>
        <width>6</width>
      </LineStyle>
      <BalloonStyle>
        <text><![CDATA[<h3>$[name]</h3>]]></text>
      </BalloonStyle>
    </Style>
    <StyleMap id="line-0288D1-4000-nodesc">
      <Pair>
        <key>normal</key>
        <styleUrl>#line-0288D1-4000-nodesc-normal</styleUrl>
      </Pair>
      <Pair>
        <key>highlight</key>
        <styleUrl>#line-0288D1-4000-nodesc-highlight</styleUrl>
      </Pair>
    </StyleMap>
    <Style id="line-7CB342-6000-nodesc-normal">
      <LineStyle>
        <color>ff42b37c</color>
        <width>6</width>
      </LineStyle>
      <BalloonStyle>
        <text><![CDATA[<h3>$[name]</h3>]]></text>
      </BalloonStyle>
    </Style>
    <Style id="line-7CB342-6000-nodesc-highlight">
      <LineStyle>
        <color>ff42b37c</color>
        <width>9</width>
      </LineStyle>
      <BalloonStyle>
        <text><![CDATA[<h3>$[name]</h3>]]></text>
      </BalloonStyle>
    </Style>
    <StyleMap id="line-7CB342-6000-nodesc">
      <Pair>
        <key>normal</key>
        <styleUrl>#line-7CB342-6000-nodesc-normal</styleUrl>
      </Pair>
      <Pair>
        <key>highlight</key>
        <styleUrl>#line-7CB342-6000-nodesc-highlight</styleUrl>
      </Pair>
    </StyleMap>
    <Folder>
      <name>RUTA DE IDA</name>
      <Placemark>
        <name>IDA</name>
        <styleUrl>#line-0288D1-4000-nodesc</styleUrl>
        <LineString>
          <tessellate>1</tessellate>
          <coordinates>
            -96.745907,17.019966,0
            -96.745884,17.019842,0
            -96.746744,17.018079,0
            -96.747127,17.016897,0
            -96.747425,17.016007,0
            -96.746025,17.015656,0
            -96.745284,17.015472,0
            -96.744056,17.015239,0
            -96.743267,17.015048,0
            -96.741256,17.014663,0
            -96.741494,17.013809,0
            -96.741769,17.012645,0
            -96.742174,17.010934,0
            -96.743849,17.011275,0
            -96.744776,17.011471,0
            -96.745112,17.009862,0
            -96.746538,17.010124,0
            -96.746906,17.008562,0
            -96.747237,17.007116,0
            -96.747384,17.006526,0
            -96.747296,17.006517,0
            -96.74691,17.006448,0
            -96.74615,17.006322,0
            -96.745385,17.00615,0
            -96.744461,17.005977,0
            -96.744048,17.005921,0
            -96.743427,17.005789,0
            -96.74282,17.005686,0
            -96.740801,17.005294,0
            -96.740561,17.005254,0
            -96.740619,17.004161,0
            -96.739742,17.00396,0
            -96.738597,17.003699,0
            -96.738192,17.004536,0
            -96.737788,17.005442,0
            -96.737371,17.006409,0
            -96.737128,17.007,0
            -96.736585,17.008256,0
            -96.736192,17.009148,0
            -96.735854,17.009875,0
            -96.735336,17.011014,0
            -96.734956,17.011824,0
            -96.734253,17.013334,0
            -96.733818,17.014325,0
            -96.733338,17.015469,0
            -96.73297,17.016307,0
            -96.732897,17.016449,0
            -96.732551,17.017307,0
            -96.731966,17.018605,0
            -96.731599,17.019405,0
            -96.731162,17.020405,0
            -96.73075,17.021299,0
            -96.730394,17.022057,0
            -96.730098,17.022781,0
            -96.73004,17.023112,0
            -96.72998,17.02312,0
            -96.729917,17.023208,0
            -96.729953,17.023326,0
            -96.729827,17.024093,0
            -96.729657,17.025529,0
            -96.729516,17.026873,0
            -96.729346,17.028298,0
            -96.729244,17.028922,0
            -96.729197,17.029597,0
            -96.729013,17.030856,0
            -96.728878,17.031942,0
            -96.728734,17.03315,0
            -96.728542,17.03437,0
            -96.728483,17.034912,0
            -96.72845,17.035411,0
            -96.728344,17.036415,0
            -96.728263,17.03651,0
            -96.728128,17.036616,0
            -96.72797,17.036681,0
            -96.727401,17.036821,0
            -96.727545,17.037708,0
            -96.727754,17.038704,0
            -96.727738,17.039104,0
            -96.727597,17.03956,0
            -96.727122,17.040887,0
            -96.726977,17.041646,0
            -96.726984,17.042398,0
            -96.727201,17.043559,0
            -96.727406,17.044352,0
            -96.72782,17.045297,0
            -96.728478,17.04639,0
            -96.728847,17.047029,0
            -96.729513,17.048216,0
            -96.729673,17.048684,0
            -96.72978,17.048976,0
            -96.729828,17.049404,0
            -96.72981,17.04988,0
            -96.729869,17.050192,0
            -96.72982,17.050423,0
            -96.729583,17.051116,0
            -96.729517,17.051566,0
            -96.729464,17.052077,0
            -96.729338,17.05213,0
            -96.729102,17.052023,0
            -96.729205,17.052495,0
            -96.729504,17.053463,0
            -96.729857,17.054646,0
            -96.730102,17.055494,0
            -96.730215,17.05594,0
            -96.7304,17.056401,0
            -96.730719,17.056882,0
            -96.73131,17.057662,0
            -96.731474,17.057913,0
            -96.731785,17.058332,0
            -96.732289,17.059066,0
            -96.732917,17.059932,0
            -96.733177,17.060331,0
            -96.733471,17.060725,0
            -96.733531,17.0608,0
            -96.733598,17.060845,0
            -96.733753,17.060775,0
            -96.734671,17.060163,0
            -96.735707,17.059484,0
            -96.736483,17.058952,0
            -96.736604,17.0591,0
            -96.736731,17.059392,0
            -96.736826,17.059645,0
            -96.736894,17.06023,0
          </coordinates>
        </LineString>
      </Placemark>
      <Placemark>
        <name>Morelos</name>
        <description>17.0145969,-96.7412909</description>
        <styleUrl>#icon-1532-0288D1</styleUrl>
        <Point>
          <coordinates>
            -96.741291,17.014597,0
          </coordinates>
        </Point>
      </Placemark>
      <Placemark>
        <name>Vicente Guerrero</name>
        <description>17.0127671,-96.7417359</description>
        <styleUrl>#icon-1532-0288D1</styleUrl>
        <Point>
          <coordinates>
            -96.741736,17.012767,0
          </coordinates>
        </Point>
      </Placemark>
      <Placemark>
        <name>Zenzontles</name>
        <description>17.010106 -96.746446</description>
        <styleUrl>#icon-1532-0288D1</styleUrl>
        <Point>
          <coordinates>
            -96.746446,17.010106,0
          </coordinates>
        </Point>
      </Placemark>
      <Placemark>
        <name>Moctezuma</name>
        <description>17.02653 -96.72956</description>
        <styleUrl>#icon-1532-0288D1</styleUrl>
        <Point>
          <coordinates>
            -96.72956,17.02653,0
          </coordinates>
        </Point>
      </Placemark>
      <Placemark>
        <name>Hornos</name>
        <description>17.02908 -96.72925</description>
        <styleUrl>#icon-1532-0288D1</styleUrl>
        <Point>
          <coordinates>
            -96.72925,17.02908,0
          </coordinates>
        </Point>
      </Placemark>
      <Placemark>
        <name>Samaria</name>
        <description>17.03162 -96.72893</description>
        <styleUrl>#icon-1532-0288D1</styleUrl>
        <Point>
          <coordinates>
            -96.72893,17.03162,0
          </coordinates>
        </Point>
      </Placemark>
      <Placemark>
        <name>Rancho Escondido</name>
        <description>17.03441	-96.72856</description>
        <styleUrl>#icon-1532-0288D1</styleUrl>
        <Point>
          <coordinates>
            -96.72856,17.03441,0
          </coordinates>
        </Point>
      </Placemark>
      <Placemark>
        <name>Ex Garita</name>
        <description>17.03625 -96.72834</description>
        <styleUrl>#icon-1532-0288D1</styleUrl>
        <Point>
          <coordinates>
            -96.72834,17.03625,0
          </coordinates>
        </Point>
      </Placemark>
      <Placemark>
        <name>Alfredo Bonfil</name>
        <description>17.0421586,-96.7269711</description>
        <styleUrl>#icon-1532-0288D1</styleUrl>
        <Point>
          <coordinates>
            -96.726971,17.042159,0
          </coordinates>
        </Point>
      </Placemark>
      <Placemark>
        <name>Mártires de Tacubaya</name>
        <description>17.0446378,-96.7275117</description>
        <styleUrl>#icon-1532-0288D1</styleUrl>
        <Point>
          <coordinates>
            -96.727512,17.044638,0
          </coordinates>
        </Point>
      </Placemark>
      <Placemark>
        <name>Eulalio Gutiérrez</name>
        <description>17.047025 -96.728809</description>
        <styleUrl>#icon-1532-0288D1</styleUrl>
        <Point>
          <coordinates>
            -96.728809,17.047025,0
          </coordinates>
        </Point>
      </Placemark>
      <Placemark>
        <name>Narciso Mendoza</name>
        <description>17.0153962,-96.7445263</description>
        <styleUrl>#icon-1532-0288D1</styleUrl>
        <Point>
          <coordinates>
            -96.744526,17.015396,0
          </coordinates>
        </Point>
      </Placemark>
      <Placemark>
        <name>Cobalto</name>
        <description>17.0064961,-96.7468716</description>
        <styleUrl>#icon-1532-0288D1</styleUrl>
        <Point>
          <coordinates>
            -96.746872,17.006496,0
          </coordinates>
        </Point>
      </Placemark>
      <Placemark>
        <name>Oro</name>
        <description>17.0077668,-96.7470605</description>
        <styleUrl>#icon-1532-0288D1</styleUrl>
        <Point>
          <coordinates>
            -96.74706,17.007767,0
          </coordinates>
        </Point>
      </Placemark>
      <Placemark>
        <name>8 de Diciembre</name>
        <description>17.0060639,-96.7446326</description>
        <styleUrl>#icon-1532-0288D1</styleUrl>
        <Point>
          <coordinates>
            -96.744633,17.006064,0
          </coordinates>
        </Point>
      </Placemark>
      <Placemark>
        <name>Universal</name>
        <description>17.0055968,-96.7424949</description>
        <styleUrl>#icon-1532-0288D1</styleUrl>
        <Point>
          <coordinates>
            -96.742495,17.005597,0
          </coordinates>
        </Point>
      </Placemark>
      <Placemark>
        <name>16 de Enero</name>
        <description>17.0044664,-96.7406083</description>
        <styleUrl>#icon-1532-0288D1</styleUrl>
        <Point>
          <coordinates>
            -96.740608,17.004466,0
          </coordinates>
        </Point>
      </Placemark>
      <Placemark>
        <name>El Puente</name>
        <description>17.0037853,-96.7387994</description>
        <styleUrl>#icon-1532-0288D1</styleUrl>
        <Point>
          <coordinates>
            -96.738799,17.003785,0
          </coordinates>
        </Point>
      </Placemark>
      <Placemark>
        <name>Seis Seis</name>
        <description>17.0068846,-96.7372129</description>
        <styleUrl>#icon-1532-0288D1</styleUrl>
        <Point>
          <coordinates>
            -96.737213,17.006885,0
          </coordinates>
        </Point>
      </Placemark>
      <Placemark>
        <name>Los Laureles</name>
        <description>17.0085457,-96.736471</description>
        <styleUrl>#icon-1532-0288D1</styleUrl>
        <Point>
          <coordinates>
            -96.736471,17.008546,0
          </coordinates>
        </Point>
      </Placemark>
      <Placemark>
        <name>Juquilita</name>
        <description>17.0112445,-96.7352462</description>
        <styleUrl>#icon-1532-0288D1</styleUrl>
        <Point>
          <coordinates>
            -96.735246,17.011244,0
          </coordinates>
        </Point>
      </Placemark>
      <Placemark>
        <name>Antequera Real 1</name>
        <description>17.0148017,-96.733647</description>
        <styleUrl>#icon-1532-0288D1</styleUrl>
        <Point>
          <coordinates>
            -96.733647,17.014802,0
          </coordinates>
        </Point>
      </Placemark>
      <Placemark>
        <name>Yuroo Xoxocotlán </name>
        <description>17.0163848,-96.7329364</description>
        <styleUrl>#icon-1532-0288D1</styleUrl>
        <Point>
          <coordinates>
            -96.732936,17.016385,0
          </coordinates>
        </Point>
      </Placemark>
      <Placemark>
        <name>Morelos</name>
        <description>17.0145969,-96.7412909</description>
        <styleUrl>#icon-1532-0288D1</styleUrl>
        <Point>
          <coordinates>
            -96.741291,17.014597,0
          </coordinates>
        </Point>
      </Placemark>
      <Placemark>
        <name>Libertad</name>
        <description>17.0162416,-96.7473596</description>
        <styleUrl>#icon-1532-0288D1</styleUrl>
        <Point>
          <coordinates>
            -96.74736,17.016242,0
          </coordinates>
        </Point>
      </Placemark>
      <Placemark>
        <name>Campanario</name>
        <description>17.0201759,-96.7312461</description>
        <styleUrl>#icon-1532-0288D1</styleUrl>
        <Point>
          <coordinates>
            -96.731246,17.020176,0
          </coordinates>
        </Point>
      </Placemark>
      <Placemark>
        <name>Rotonda Xoxocotlán</name>
        <description>17.0236567,-96.7299141</description>
        <styleUrl>#icon-1532-0288D1</styleUrl>
        <Point>
          <coordinates>
            -96.729914,17.023657,0
          </coordinates>
        </Point>
      </Placemark>
      <Placemark>
        <name>Yubez Lázaro Cárdenas</name>
        <description>17.05582 -96.73036</description>
        <styleUrl>#icon-1532-0288D1</styleUrl>
        <Point>
          <coordinates>
            -96.73036,17.05582,0
          </coordinates>
        </Point>
      </Placemark>
      <Placemark>
        <name>Vicente Guerrero</name>
        <description>17.0127671,-96.7417359</description>
        <styleUrl>#icon-1532-0288D1</styleUrl>
        <Point>
          <coordinates>
            -96.741736,17.012767,0
          </coordinates>
        </Point>
      </Placemark>
      <Placemark>
        <name>Cardenales</name>
        <description>17.0114841,-96.7446232</description>
        <styleUrl>#icon-1532-0288D1</styleUrl>
        <Point>
          <coordinates>
            -96.744623,17.011484,0
          </coordinates>
        </Point>
      </Placemark>
      <Placemark>
        <name>Yubez Flores Magón </name>
        <description>17.06019 -96.7332</description>
        <styleUrl>#icon-1532-0288D1</styleUrl>
        <Point>
          <coordinates>
            -96.7332,17.06019,0
          </coordinates>
        </Point>
      </Placemark>
      <Placemark>
        <name>Corregidora</name>
        <description>17.0111841,-96.7421541</description>
        <styleUrl>#icon-1532-0288D1</styleUrl>
        <Point>
          <coordinates>
            -96.742154,17.011184,0
          </coordinates>
        </Point>
      </Placemark>
      <Placemark>
        <name>Central de Abastos</name>
        <description>17.05975636 -96.73532958</description>
        <styleUrl>#icon-1532-0288D1</styleUrl>
        <Point>
          <coordinates>
            -96.73533,17.059756,0
          </coordinates>
        </Point>
      </Placemark>
      <Placemark>
        <name>Base Esquipulas</name>
        <description>17.0199474,-96.7458925</description>
        <styleUrl>#icon-1532-0288D1</styleUrl>
        <Point>
          <coordinates>
            -96.745892,17.019947,0
          </coordinates>
        </Point>
      </Placemark>
    </Folder>
    <Folder>
      <name>RUTA REGRESO</name>
      <Placemark>
        <name>Línea 28</name>
        <styleUrl>#line-7CB342-6000-nodesc</styleUrl>
        <LineString>
          <tessellate>1</tessellate>
          <coordinates>
            -96.736874,17.05984,0
            -96.73674,17.05943,0
            -96.736627,17.059123,0
            -96.736541,17.058997,0
            -96.736466,17.05891,0
            -96.736391,17.058917,0
            -96.735688,17.059374,0
            -96.734653,17.060035,0
            -96.733618,17.060746,0
            -96.733052,17.059915,0
            -96.731896,17.058253,0
            -96.731547,17.057756,0
            -96.731461,17.057597,0
            -96.731228,17.057438,0
            -96.730627,17.056499,0
            -96.730463,17.056246,0
            -96.730176,17.05533,0
            -96.730093,17.054879,0
            -96.72987,17.054163,0
            -96.729626,17.053322,0
            -96.729506,17.052945,0
            -96.729414,17.052668,0
            -96.729338,17.05213,0
            -96.729468,17.052099,0
            -96.729562,17.051284,0
            -96.729878,17.050237,0
            -96.729814,17.049671,0
            -96.729801,17.049181,0
            -96.729742,17.048801,0
            -96.729513,17.048216,0
            -96.728502,17.04645,0
            -96.727786,17.045216,0
            -96.727585,17.044762,0
            -96.727406,17.044352,0
            -96.72711,17.043147,0
            -96.726979,17.04237,0
            -96.726984,17.041693,0
            -96.727094,17.041011,0
            -96.727714,17.039185,0
            -96.727776,17.038862,0
            -96.727473,17.037277,0
            -96.727419,17.036838,0
            -96.728096,17.036723,0
            -96.728308,17.036709,0
            -96.728378,17.036773,0
            -96.72847,17.036776,0
            -96.728564,17.036702,0
            -96.72857,17.036616,0
            -96.728492,17.03649,0
            -96.728525,17.035832,0
            -96.728607,17.035156,0
            -96.728743,17.034285,0
            -96.728869,17.033189,0
            -96.728949,17.03249,0
            -96.729071,17.031582,0
            -96.729178,17.030839,0
            -96.729271,17.030199,0
            -96.729362,17.029554,0
            -96.729422,17.028656,0
            -96.729553,17.027602,0
            -96.729716,17.026357,0
            -96.729844,17.025014,0
            -96.730061,17.023422,0
            -96.730186,17.023276,0
            -96.730179,17.02322,0
            -96.730129,17.023124,0
            -96.730191,17.022777,0
            -96.730345,17.022391,0
            -96.730734,17.021548,0
            -96.730992,17.021011,0
            -96.731322,17.02025,0
            -96.731858,17.019009,0
            -96.732418,17.017792,0
            -96.733247,17.015953,0
            -96.733864,17.014553,0
            -96.734261,17.013596,0
            -96.734473,17.013119,0
            -96.734894,17.012262,0
            -96.735423,17.011088,0
            -96.735956,17.00988,0
            -96.736576,17.008487,0
            -96.737249,17.006992,0
            -96.737491,17.00645,0
            -96.737715,17.005831,0
            -96.738336,17.004422,0
            -96.738702,17.003729,0
            -96.73945,17.003894,0
            -96.740629,17.00415,0
            -96.740582,17.004474,0
            -96.740595,17.004733,0
            -96.740561,17.005254,0
            -96.74109,17.005355,0
            -96.741845,17.005507,0
            -96.743479,17.005796,0
            -96.744185,17.005942,0
            -96.745106,17.00609,0
            -96.745848,17.006259,0
            -96.746487,17.006381,0
            -96.74688,17.006432,0
            -96.747374,17.006541,0
            -96.747276,17.006984,0
            -96.747096,17.00769,0
            -96.746697,17.009307,0
            -96.746525,17.01012,0
            -96.745504,17.009918,0
            -96.745103,17.009844,0
            -96.745031,17.010209,0
            -96.74476,17.01145,0
            -96.743002,17.011098,0
            -96.742174,17.010934,0
            -96.742031,17.011553,0
            -96.741826,17.012397,0
            -96.741698,17.012948,0
            -96.741415,17.014032,0
            -96.741256,17.014663,0
            -96.742837,17.014964,0
            -96.744568,17.015354,0
            -96.746033,17.01567,0
            -96.746332,17.015726,0
            -96.747428,17.016016,0
            -96.747127,17.016897,0
            -96.746776,17.01793,0
            -96.746508,17.018555,0
            -96.746052,17.019412,0
            -96.745875,17.019848,0
            -96.745899,17.019967,0
          </coordinates>
        </LineString>
      </Placemark>
      <Placemark>
        <name>Hidalgo</name>
        <description>17.016033 -96.747373</description>
        <styleUrl>#icon-1532-7CB342</styleUrl>
        <Point>
          <coordinates>
            -96.747373,17.016033,0
          </coordinates>
        </Point>
      </Placemark>
      <Placemark>
        <name>Candelaria</name>
        <description>17.0114375,-96.7447701</description>
        <styleUrl>#icon-1532-7CB342</styleUrl>
        <Point>
          <coordinates>
            -96.74477,17.011438,0
          </coordinates>
        </Point>
      </Placemark>
      <Placemark>
        <name>Narciso Mendoza</name>
        <description>17.0153473,-96.7443018</description>
        <styleUrl>#icon-1532-7CB342</styleUrl>
        <Point>
          <coordinates>
            -96.744302,17.015347,0
          </coordinates>
        </Point>
      </Placemark>
      <Placemark>
        <name>Base Esquipulas</name>
        <description>17.0199474,-96.7458925</description>
        <styleUrl>#icon-1532-7CB342</styleUrl>
        <Point>
          <coordinates>
            -96.745892,17.019947,0
          </coordinates>
        </Point>
      </Placemark>
      <Placemark>
        <name>Cardenales</name>
        <description>17.0109798,-96.742277</description>
        <styleUrl>#icon-1532-7CB342</styleUrl>
        <Point>
          <coordinates>
            -96.742277,17.01098,0
          </coordinates>
        </Point>
      </Placemark>
      <Placemark>
        <name>Zenzontles</name>
        <description>17.010106 -96.746446</description>
        <styleUrl>#icon-1532-7CB342</styleUrl>
        <Point>
          <coordinates>
            -96.746446,17.010106,0
          </coordinates>
        </Point>
      </Placemark>
      <Placemark>
        <name>Eulalio Gutiérrez</name>
        <description>17.0468891,-96.7287689</description>
        <styleUrl>#icon-1532-7CB342</styleUrl>
        <Point>
          <coordinates>
            -96.728769,17.046889,0
          </coordinates>
        </Point>
      </Placemark>
      <Placemark>
        <name>Mártires de Tacubaya</name>
        <description>17.044806 -96.727635</description>
        <styleUrl>#icon-1532-7CB342</styleUrl>
        <Point>
          <coordinates>
            -96.727635,17.044806,0
          </coordinates>
        </Point>
      </Placemark>
      <Placemark>
        <name>Fresnos</name>
        <description>17.0419699,-96.7269587</description>
        <styleUrl>#icon-1532-7CB342</styleUrl>
        <Point>
          <coordinates>
            -96.726959,17.04197,0
          </coordinates>
        </Point>
      </Placemark>
      <Placemark>
        <name>Ex Garita</name>
        <description>17.03637 -96.72849</description>
        <styleUrl>#icon-1532-7CB342</styleUrl>
        <Point>
          <coordinates>
            -96.72849,17.03637,0
          </coordinates>
        </Point>
      </Placemark>
      <Placemark>
        <name>Rancho Escondido</name>
        <description>17.03475 -96.72868</description>
        <styleUrl>#icon-1532-7CB342</styleUrl>
        <Point>
          <coordinates>
            -96.72868,17.03475,0
          </coordinates>
        </Point>
      </Placemark>
      <Placemark>
        <name>Samaria</name>
        <description>17.03178 -96.72902</description>
        <styleUrl>#icon-1532-7CB342</styleUrl>
        <Point>
          <coordinates>
            -96.72902,17.03178,0
          </coordinates>
        </Point>
      </Placemark>
      <Placemark>
        <name>Hornos</name>
        <description>17.03012 -96.72922</description>
        <styleUrl>#icon-1532-7CB342</styleUrl>
        <Point>
          <coordinates>
            -96.72922,17.03012,0
          </coordinates>
        </Point>
      </Placemark>
      <Placemark>
        <name>Moctezuma</name>
        <description>17.02696 -96.72961</description>
        <styleUrl>#icon-1532-7CB342</styleUrl>
        <Point>
          <coordinates>
            -96.72961,17.02696,0
          </coordinates>
        </Point>
      </Placemark>
      <Placemark>
        <name>Mercado de Xoxocotlán</name>
        <description>17.02571 -96.72977</description>
        <styleUrl>#icon-1532-7CB342</styleUrl>
        <Point>
          <coordinates>
            -96.72977,17.02571,0
          </coordinates>
        </Point>
      </Placemark>
      <Placemark>
        <name>Rotonda Xoxocotlán</name>
        <description>17.02375 -96.73001</description>
        <styleUrl>#icon-1532-7CB342</styleUrl>
        <Point>
          <coordinates>
            -96.73001,17.02375,0
          </coordinates>
        </Point>
      </Placemark>
      <Placemark>
        <name>Base Esquipulas</name>
        <description>17.010106 -96.746446</description>
        <styleUrl>#icon-1532-7CB342</styleUrl>
        <Point>
          <coordinates>
            -96.746446,17.010106,0
          </coordinates>
        </Point>
      </Placemark>
      <Placemark>
        <name>Progreso</name>
        <description>17.02023,-96.7313187</description>
        <styleUrl>#icon-1532-7CB342</styleUrl>
        <Point>
          <coordinates>
            -96.731319,17.02023,0
          </coordinates>
        </Point>
      </Placemark>
      <Placemark>
        <name>Real Antequera 1</name>
        <description>17.0147199,-96.7338025</description>
        <styleUrl>#icon-1532-7CB342</styleUrl>
        <Point>
          <coordinates>
            -96.733802,17.01472,0
          </coordinates>
        </Point>
      </Placemark>
      <Placemark>
        <name>Horqueta</name>
        <description>17.0180335,-96.7322907</description>
        <styleUrl>#icon-1532-7CB342</styleUrl>
        <Point>
          <coordinates>
            -96.732291,17.018034,0
          </coordinates>
        </Point>
      </Placemark>
      <Placemark>
        <name>Juquilita</name>
        <description>17.0115893,-96.7351696</description>
        <styleUrl>#icon-1532-7CB342</styleUrl>
        <Point>
          <coordinates>
            -96.73517,17.011589,0
          </coordinates>
        </Point>
      </Placemark>
      <Placemark>
        <name>Los Laureles</name>
        <description>17.0084579,-96.7365635</description>
        <styleUrl>#icon-1532-7CB342</styleUrl>
        <Point>
          <coordinates>
            -96.736564,17.008458,0
          </coordinates>
        </Point>
      </Placemark>
      <Placemark>
        <name>Seis Seis</name>
        <description>17.0070139,-96.7372066</description>
        <styleUrl>#icon-1532-7CB342</styleUrl>
        <Point>
          <coordinates>
            -96.737207,17.007014,0
          </coordinates>
        </Point>
      </Placemark>
      <Placemark>
        <name>El Puente</name>
        <description>17.0038941,-96.738608</description>
        <styleUrl>#icon-1532-7CB342</styleUrl>
        <Point>
          <coordinates>
            -96.738608,17.003894,0
          </coordinates>
        </Point>
      </Placemark>
      <Placemark>
        <name>Juan de la Barrera</name>
        <description>17.0047021,-96.7405993</description>
        <styleUrl>#icon-1532-7CB342</styleUrl>
        <Point>
          <coordinates>
            -96.740599,17.004702,0
          </coordinates>
        </Point>
      </Placemark>
      <Placemark>
        <name>Universal</name>
        <description>17.0056671,-96.7424076</description>
        <styleUrl>#icon-1532-7CB342</styleUrl>
        <Point>
          <coordinates>
            -96.742408,17.005667,0
          </coordinates>
        </Point>
      </Placemark>
      <Placemark>
        <name>5 de Mayo</name>
        <description>17.0060639,-96.7446326</description>
        <styleUrl>#icon-1532-7CB342</styleUrl>
        <Point>
          <coordinates>
            -96.744633,17.006064,0
          </coordinates>
        </Point>
      </Placemark>
      <Placemark>
        <name>Uranio</name>
        <description>17.0065435,-96.7471522</description>
        <styleUrl>#icon-1532-7CB342</styleUrl>
        <Point>
          <coordinates>
            -96.747152,17.006544,0
          </coordinates>
        </Point>
      </Placemark>
      <Placemark>
        <name>Miguel Hidalgo</name>
        <description>17.0087505,-96.7468594</description>
        <styleUrl>#icon-1532-7CB342</styleUrl>
        <Point>
          <coordinates>
            -96.746859,17.00875,0
          </coordinates>
        </Point>
      </Placemark>
      <Placemark>
        <name>De Mercaderes</name>
        <description>17.05923332 -96.73585241</description>
        <styleUrl>#icon-1532-7CB342</styleUrl>
        <Point>
          <coordinates>
            -96.735852,17.059233,0
          </coordinates>
        </Point>
      </Placemark>
      <Placemark>
        <name>Central de Abastos</name>
        <description>17.0605729 -96.7339204</description>
        <styleUrl>#icon-1532-7CB342</styleUrl>
        <Point>
          <coordinates>
            -96.73392,17.060573,0
          </coordinates>
        </Point>
      </Placemark>
      <Placemark>
        <name>Yubez María Sabina</name>
        <description>17.0572 -96.73092</description>
        <styleUrl>#icon-1532-7CB342</styleUrl>
        <Point>
          <coordinates>
            -96.73092,17.0572,0
          </coordinates>
        </Point>
      </Placemark>
      <Placemark>
        <name>Riberas</name>
        <description>17.05324 -96.72956</description>
        <styleUrl>#icon-1532-7CB342</styleUrl>
        <Point>
          <coordinates>
            -96.72956,17.05324,0
          </coordinates>
        </Point>
      </Placemark>
      <Placemark>
        <name>Vicente Guerrero</name>
        <description>17.0127671,-96.7417359</description>
        <styleUrl>#icon-1532-7CB342</styleUrl>
        <Point>
          <coordinates>
            -96.741736,17.012767,0
          </coordinates>
        </Point>
      </Placemark>
      <Placemark>
        <name>Morelos</name>
        <description>17.0145969,-96.7412909</description>
        <styleUrl>#icon-1532-7CB342</styleUrl>
        <Point>
          <coordinates>
            -96.741291,17.014597,0
          </coordinates>
        </Point>
      </Placemark>
    </Folder>
  </Document>
</kml>
