<?xml version="1.0" encoding="UTF-8"?>
<kml xmlns="http://www.opengis.net/kml/2.2">
  <Document>
    <name>Ruta RC-11 Má┼²: La Raya/Aeropuerto - Módulo Azul</name>
    <description/>
    <Style id="icon-1532-0288D1-normal">
      <IconStyle>
        <color>ffd18802</color>
        <scale>1</scale>
        <Icon>
          <href>https://www.gstatic.com/mapspro/images/stock/503-wht-blank_maps.png</href>
        </Icon>
      </IconStyle>
      <LabelStyle>
        <scale>0</scale>
      </LabelStyle>
    </Style>
    <Style id="icon-1532-0288D1-highlight">
      <IconStyle>
        <color>ffd18802</color>
        <scale>1</scale>
        <Icon>
          <href>https://www.gstatic.com/mapspro/images/stock/503-wht-blank_maps.png</href>
        </Icon>
      </IconStyle>
      <LabelStyle>
        <scale>1</scale>
      </LabelStyle>
    </Style>
    <StyleMap id="icon-1532-0288D1">
      <Pair>
        <key>normal</key>
        <styleUrl>#icon-1532-0288D1-normal</styleUrl>
      </Pair>
      <Pair>
        <key>highlight</key>
        <styleUrl>#icon-1532-0288D1-highlight</styleUrl>
      </Pair>
    </StyleMap>
    <Style id="icon-1532-0288D1-nodesc-normal">
      <IconStyle>
        <color>ffd18802</color>
        <scale>1</scale>
        <Icon>
          <href>https://www.gstatic.com/mapspro/images/stock/503-wht-blank_maps.png</href>
        </Icon>
      </IconStyle>
      <LabelStyle>
        <scale>0</scale>
      </LabelStyle>
      <BalloonStyle>
        <text><![CDATA[<h3>$[name]</h3>]]></text>
      </BalloonStyle>
    </Style>
    <Style id="icon-1532-0288D1-nodesc-highlight">
      <IconStyle>
        <color>ffd18802</color>
        <scale>1</scale>
        <Icon>
          <href>https://www.gstatic.com/mapspro/images/stock/503-wht-blank_maps.png</href>
        </Icon>
      </IconStyle>
      <LabelStyle>
        <scale>1</scale>
      </LabelStyle>
      <BalloonStyle>
        <text><![CDATA[<h3>$[name]</h3>]]></text>
      </BalloonStyle>
    </Style>
    <StyleMap id="icon-1532-0288D1-nodesc">
      <Pair>
        <key>normal</key>
        <styleUrl>#icon-1532-0288D1-nodesc-normal</styleUrl>
      </Pair>
      <Pair>
        <key>highlight</key>
        <styleUrl>#icon-1532-0288D1-nodesc-highlight</styleUrl>
      </Pair>
    </StyleMap>
    <Style id="icon-1532-7CB342-normal">
      <IconStyle>
        <color>ff42b37c</color>
        <scale>1</scale>
        <Icon>
          <href>https://www.gstatic.com/mapspro/images/stock/503-wht-blank_maps.png</href>
        </Icon>
      </IconStyle>
      <LabelStyle>
        <scale>0</scale>
      </LabelStyle>
    </Style>
    <Style id="icon-1532-7CB342-highlight">
      <IconStyle>
        <color>ff42b37c</color>
        <scale>1</scale>
        <Icon>
          <href>https://www.gstatic.com/mapspro/images/stock/503-wht-blank_maps.png</href>
        </Icon>
      </IconStyle>
      <LabelStyle>
        <scale>1</scale>
      </LabelStyle>
    </Style>
    <StyleMap id="icon-1532-7CB342">
      <Pair>
        <key>normal</key>
        <styleUrl>#icon-1532-7CB342-normal</styleUrl>
      </Pair>
      <Pair>
        <key>highlight</key>
        <styleUrl>#icon-1532-7CB342-highlight</styleUrl>
      </Pair>
    </StyleMap>
    <Style id="icon-1532-DB4436-normal">
      <IconStyle>
        <color>ff3644db</color>
        <scale>1</scale>
        <Icon>
          <href>https://www.gstatic.com/mapspro/images/stock/503-wht-blank_maps.png</href>
        </Icon>
      </IconStyle>
      <LabelStyle>
        <scale>0</scale>
      </LabelStyle>
    </Style>
    <Style id="icon-1532-DB4436-highlight">
      <IconStyle>
        <color>ff3644db</color>
        <scale>1</scale>
        <Icon>
          <href>https://www.gstatic.com/mapspro/images/stock/503-wht-blank_maps.png</href>
        </Icon>
      </IconStyle>
      <LabelStyle>
        <scale>1</scale>
      </LabelStyle>
    </Style>
    <StyleMap id="icon-1532-DB4436">
      <Pair>
        <key>normal</key>
        <styleUrl>#icon-1532-DB4436-normal</styleUrl>
      </Pair>
      <Pair>
        <key>highlight</key>
        <styleUrl>#icon-1532-DB4436-highlight</styleUrl>
      </Pair>
    </StyleMap>
    <Style id="line-0288D1-4000-nodesc-normal">
      <LineStyle>
        <color>ffd18802</color>
        <width>4</width>
      </LineStyle>
      <BalloonStyle>
        <text><![CDATA[<h3>$[name]</h3>]]></text>
      </BalloonStyle>
    </Style>
    <Style id="line-0288D1-4000-nodesc-highlight">
      <LineStyle>
        <color>ffd18802</color>
        <width>6</width>
      </LineStyle>
      <BalloonStyle>
        <text><![CDATA[<h3>$[name]</h3>]]></text>
      </BalloonStyle>
    </Style>
    <StyleMap id="line-0288D1-4000-nodesc">
      <Pair>
        <key>normal</key>
        <styleUrl>#line-0288D1-4000-nodesc-normal</styleUrl>
      </Pair>
      <Pair>
        <key>highlight</key>
        <styleUrl>#line-0288D1-4000-nodesc-highlight</styleUrl>
      </Pair>
    </StyleMap>
    <Style id="line-7CB342-4000-nodesc-normal">
      <LineStyle>
        <color>ff42b37c</color>
        <width>4</width>
      </LineStyle>
      <BalloonStyle>
        <text><![CDATA[<h3>$[name]</h3>]]></text>
      </BalloonStyle>
    </Style>
    <Style id="line-7CB342-4000-nodesc-highlight">
      <LineStyle>
        <color>ff42b37c</color>
        <width>6</width>
      </LineStyle>
      <BalloonStyle>
        <text><![CDATA[<h3>$[name]</h3>]]></text>
      </BalloonStyle>
    </Style>
    <StyleMap id="line-7CB342-4000-nodesc">
      <Pair>
        <key>normal</key>
        <styleUrl>#line-7CB342-4000-nodesc-normal</styleUrl>
      </Pair>
      <Pair>
        <key>highlight</key>
        <styleUrl>#line-7CB342-4000-nodesc-highlight</styleUrl>
      </Pair>
    </StyleMap>
    <Folder>
      <name>IDA PARADAS</name>
      <Placemark>
        <name>Ida</name>
        <styleUrl>#line-0288D1-4000-nodesc</styleUrl>
        <LineString>
          <tessellate>1</tessellate>
          <coordinates>
            -96.726232,16.976922,0
            -96.725824,16.978297,0
            -96.72565,16.978948,0
            -96.725489,16.979423,0
            -96.725159,16.980829,0
            -96.724792,16.982342,0
            -96.724585,16.983163,0
            -96.724389,16.983966,0
            -96.724105,16.985128,0
            -96.723614,16.987096,0
            -96.723432,16.98796,0
            -96.722954,16.990002,0
            -96.722724,16.990787,0
            -96.722724,16.991259,0
            -96.722619,16.991498,0
            -96.722085,16.992157,0
            -96.721798,16.992482,0
            -96.721503,16.992852,0
            -96.721192,16.99336,0
            -96.720921,16.993819,0
            -96.720798,16.993968,0
            -96.720567,16.994116,0
            -96.720473,16.994204,0
            -96.720371,16.994378,0
            -96.720122,16.995222,0
            -96.719736,16.996492,0
            -96.719478,16.997425,0
            -96.719103,16.99869,0
            -96.718657,17.000211,0
            -96.718411,17.001073,0
            -96.718376,17.001247,0
            -96.717627,17.001329,0
            -96.717359,17.001368,0
            -96.71686,17.001406,0
            -96.716571,17.001414,0
            -96.715693,17.001455,0
            -96.714731,17.001504,0
            -96.714532,17.001524,0
            -96.714229,17.001604,0
            -96.713985,17.001712,0
            -96.713727,17.001858,0
            -96.71343,17.002099,0
            -96.713259,17.002294,0
            -96.712966,17.00253,0
            -96.712932,17.003549,0
            -96.712866,17.004584,0
            -96.712832,17.005891,0
            -96.712797,17.007108,0
            -96.712714,17.009463,0
            -96.712633,17.011379,0
            -96.712553,17.012587,0
            -96.712255,17.014138,0
            -96.71192,17.015793,0
            -96.711552,17.017593,0
            -96.711161,17.019201,0
            -96.71079,17.020802,0
            -96.710372,17.022458,0
            -96.710037,17.023895,0
            -96.709723,17.025213,0
            -96.709543,17.025926,0
            -96.709511,17.026549,0
            -96.709597,17.027272,0
            -96.709833,17.027914,0
            -96.710978,17.029552,0
            -96.711643,17.030514,0
            -96.712255,17.031373,0
            -96.71344,17.033014,0
            -96.713693,17.033368,0
            -96.713655,17.033556,0
            -96.713601,17.033771,0
            -96.713078,17.034517,0
            -96.712537,17.035361,0
            -96.711863,17.036305,0
            -96.711201,17.037215,0
            -96.710806,17.037797,0
            -96.710731,17.037954,0
            -96.710627,17.038295,0
            -96.710643,17.038646,0
            -96.710742,17.03901,0
            -96.711131,17.039631,0
            -96.712201,17.040977,0
            -96.712679,17.041621,0
            -96.712931,17.041918,0
            -96.713097,17.042054,0
            -96.713465,17.042619,0
            -96.713805,17.043026,0
            -96.714017,17.04338,0
            -96.714167,17.043688,0
            -96.714261,17.044098,0
            -96.714264,17.044452,0
            -96.714234,17.04466,0
            -96.714159,17.045216,0
            -96.714017,17.045957,0
            -96.713896,17.046981,0
            -96.713727,17.048122,0
            -96.713545,17.049491,0
            -96.71329,17.051007,0
            -96.713154,17.051984,0
            -96.713068,17.052373,0
            -96.712912,17.053132,0
            -96.712885,17.053353,0
            -96.712815,17.053561,0
            -96.71288,17.053884,0
            -96.713011,17.054392,0
            -96.713009,17.054789,0
            -96.712866,17.056186,0
            -96.712837,17.05692,0
            -96.712724,17.058046,0
            -96.71274,17.058538,0
            -96.713035,17.059328,0
            -96.713518,17.060471,0
            -96.713604,17.060822,0
            -96.713634,17.061107,0
            -96.71373,17.061369,0
            -96.713896,17.061571,0
            -96.714006,17.061787,0
            -96.714044,17.062258,0
            -96.714041,17.062669,0
            -96.714098,17.063171,0
            -96.714127,17.063864,0
            -96.714173,17.064589,0
            -96.714167,17.065192,0
            -96.714124,17.065266,0
            -96.71413,17.065474,0
            -96.71414,17.065605,0
            -96.71413,17.065928,0
            -96.714063,17.066579,0
            -96.713985,17.067233,0
            -96.713843,17.068287,0
            -96.713803,17.068523,0
            -96.71377,17.0691,0
            -96.713599,17.070448,0
            -96.713529,17.070858,0
            -96.713414,17.07153,0
            -96.713328,17.072394,0
            -96.713258,17.072861,0
            -96.713124,17.073861,0
            -96.713035,17.074417,0
            -96.71292,17.075228,0
            -96.712789,17.076035,0
            -96.712665,17.077079,0
            -96.712472,17.078302,0
            -96.712373,17.079343,0
            -96.712247,17.079899,0
            -96.712225,17.080453,0
            -96.712086,17.081471,0
            -96.712032,17.081801,0
            -96.711928,17.082363,0
            -96.711861,17.08325,0
            -96.711818,17.083458,0
            -96.711595,17.083804,0
            -96.711319,17.084327,0
            -96.711209,17.084829,0
            -96.711217,17.085147,0
            -96.711351,17.085565,0
            -96.711608,17.086032,0
            -96.711751,17.086242,0
          </coordinates>
        </LineString>
      </Placemark>
      <Placemark>
        <name>Base La Raya</name>
        <description>16.9768857,-96.7262353</description>
        <styleUrl>#icon-1532-DB4436</styleUrl>
        <Point>
          <coordinates>
            -96.726257,16.976886,0
          </coordinates>
        </Point>
      </Placemark>
      <Placemark>
        <name>Francisco I Madero</name>
        <description>16.9810943,-96.7250932</description>
        <styleUrl>#icon-1532-0288D1</styleUrl>
        <Point>
          <coordinates>
            -96.725093,16.981094,0
          </coordinates>
        </Point>
      </Placemark>
      <Placemark>
        <name>5 de Mayo</name>
        <description>16.983976,-96.7244083</description>
        <styleUrl>#icon-1532-0288D1</styleUrl>
        <Point>
          <coordinates>
            -96.724408,16.983976,0
          </coordinates>
        </Point>
      </Placemark>
      <Placemark>
        <name>Golfo de México</name>
        <description>16.9880103,-96.7234367</description>
        <styleUrl>#icon-1532-0288D1</styleUrl>
        <Point>
          <coordinates>
            -96.723437,16.98801,0
          </coordinates>
        </Point>
      </Placemark>
      <Placemark>
        <name>Camino a Animas Trujano</name>
        <description>16.9910017,-96.722743</description>
        <styleUrl>#icon-1532-0288D1</styleUrl>
        <Point>
          <coordinates>
            -96.722743,16.991002,0
          </coordinates>
        </Point>
      </Placemark>
      <Placemark>
        <name>Unidad Deportiva el Tequio 2</name>
        <description>16.9945574,-96.7203497</description>
        <styleUrl>#icon-1532-0288D1</styleUrl>
        <Point>
          <coordinates>
            -96.72035,16.994557,0
          </coordinates>
        </Point>
      </Placemark>
      <Placemark>
        <name>Escuela Oficial Rayados Oaxaca</name>
        <description>16.999157 -96.718997</description>
        <styleUrl>#icon-1532-0288D1</styleUrl>
        <Point>
          <coordinates>
            -96.718997,16.999157,0
          </coordinates>
        </Point>
      </Placemark>
      <Placemark>
        <name>Unidad Deportiva el Tequio 1</name>
        <description>16.9975081,-96.7194863</description>
        <styleUrl>#icon-1532-0288D1</styleUrl>
        <Point>
          <coordinates>
            -96.719486,16.997508,0
          </coordinates>
        </Point>
      </Placemark>
      <Placemark>
        <name>Aeropuerto</name>
        <description>17.0009486,-96.7184756</description>
        <styleUrl>#icon-1532-0288D1</styleUrl>
        <Point>
          <coordinates>
            -96.718476,17.000949,0
          </coordinates>
        </Point>
      </Placemark>
      <Placemark>
        <name>Insurgentes</name>
        <description>17.0029947 -96.7129495</description>
        <styleUrl>#icon-1532-0288D1</styleUrl>
        <Point>
          <coordinates>
            -96.71295,17.002995,0
          </coordinates>
        </Point>
      </Placemark>
      <Placemark>
        <name>Camino al Infonavit</name>
        <styleUrl>#icon-1532-0288D1-nodesc</styleUrl>
        <Point>
          <coordinates>
            -96.712814,17.006563,0
          </coordinates>
        </Point>
      </Placemark>
      <Placemark>
        <name>Del Panteón</name>
        <description>17.010056 -96.7126849</description>
        <styleUrl>#icon-1532-0288D1</styleUrl>
        <Point>
          <coordinates>
            -96.712685,17.010056,0
          </coordinates>
        </Point>
      </Placemark>
      <Placemark>
        <name>Porfirio Diaz</name>
        <description>17.0117601 -96.7126194</description>
        <styleUrl>#icon-1532-0288D1</styleUrl>
        <Point>
          <coordinates>
            -96.712619,17.01176,0
          </coordinates>
        </Point>
      </Placemark>
      <Placemark>
        <name>Libertad</name>
        <description>17.0152889 -96.7120531</description>
        <styleUrl>#icon-1532-0288D1</styleUrl>
        <Point>
          <coordinates>
            -96.712053,17.015289,0
          </coordinates>
        </Point>
      </Placemark>
      <Placemark>
        <name>Eucaliptos</name>
        <description>17.0190782 -96.7110761</description>
        <styleUrl>#icon-1532-0288D1</styleUrl>
        <Point>
          <coordinates>
            -96.711076,17.019078,0
          </coordinates>
        </Point>
      </Placemark>
      <Placemark>
        <name>Quinta Priv de Pinos</name>
        <description>17.0208916 -96.7106324</description>
        <styleUrl>#icon-1532-0288D1</styleUrl>
        <Point>
          <coordinates>
            -96.710632,17.020892,0
          </coordinates>
        </Point>
      </Placemark>
      <Placemark>
        <name>Luis Echeverria</name>
        <description>17.0243806 -96.7099625</description>
        <styleUrl>#icon-1532-0288D1</styleUrl>
        <Point>
          <coordinates>
            -96.709962,17.024381,0
          </coordinates>
        </Point>
      </Placemark>
      <Placemark>
        <name>Rio Salado</name>
        <description>17.0289827 -96.7105811</description>
        <styleUrl>#icon-1532-0288D1</styleUrl>
        <Point>
          <coordinates>
            -96.710581,17.028983,0
          </coordinates>
        </Point>
      </Placemark>
      <Placemark>
        <name>Morelos</name>
        <description>17.030781 -96.7118188</description>
        <styleUrl>#icon-1532-0288D1</styleUrl>
        <Point>
          <coordinates>
            -96.711819,17.030781,0
          </coordinates>
        </Point>
      </Placemark>
      <Placemark>
        <name>Carlos Gracida</name>
        <description>17.0331198 -96.7134644</description>
        <styleUrl>#icon-1532-0288D1</styleUrl>
        <Point>
          <coordinates>
            -96.713464,17.03312,0
          </coordinates>
        </Point>
      </Placemark>
      <Placemark>
        <name>Cala Sanz</name>
        <description>17.03572 -96.71215</description>
        <styleUrl>#icon-1532-0288D1</styleUrl>
        <Point>
          <coordinates>
            -96.71215,17.03572,0
          </coordinates>
        </Point>
      </Placemark>
      <Placemark>
        <name>Plaza del Valle Contrafrente</name>
        <description>17.038562 -96.710584</description>
        <styleUrl>#icon-1532-0288D1</styleUrl>
        <Point>
          <coordinates>
            -96.710584,17.038562,0
          </coordinates>
        </Point>
      </Placemark>
      <Placemark>
        <name>Plaza del Valle</name>
        <description>17.0401 -96.71144</description>
        <styleUrl>#icon-1532-0288D1</styleUrl>
        <Point>
          <coordinates>
            -96.71144,17.0401,0
          </coordinates>
        </Point>
      </Placemark>
      <Placemark>
        <name>Plaza Oaxaca</name>
        <description>17.0432 -96.71385</description>
        <styleUrl>#icon-1532-0288D1</styleUrl>
        <Point>
          <coordinates>
            -96.71385,17.0432,0
          </coordinates>
        </Point>
      </Placemark>
      <Placemark>
        <name>Facultad de Arquitectura</name>
        <description>17.04649 -96.71389</description>
        <styleUrl>#icon-1532-0288D1</styleUrl>
        <Point>
          <coordinates>
            -96.71389,17.04649,0
          </coordinates>
        </Point>
      </Placemark>
      <Placemark>
        <name>Facultad de Enfermería</name>
        <description>17.04861 -96.71361</description>
        <styleUrl>#icon-1532-0288D1</styleUrl>
        <Point>
          <coordinates>
            -96.71361,17.04861,0
          </coordinates>
        </Point>
      </Placemark>
      <Placemark>
        <name>Rectoria</name>
        <description>17.05092 -96.71328</description>
        <styleUrl>#icon-1532-0288D1</styleUrl>
        <Point>
          <coordinates>
            -96.71328,17.05092,0
          </coordinates>
        </Point>
      </Placemark>
      <Placemark>
        <name>Crucero de 5 señores</name>
        <description>17.05362 -96.71283</description>
        <styleUrl>#icon-1532-0288D1</styleUrl>
        <Point>
          <coordinates>
            -96.71283,17.05362,0
          </coordinates>
        </Point>
      </Placemark>
      <Placemark>
        <name>Luis G. Urbina</name>
        <description>17.0556058 -96.712951</description>
        <styleUrl>#icon-1532-0288D1</styleUrl>
        <Point>
          <coordinates>
            -96.712951,17.055606,0
          </coordinates>
        </Point>
      </Placemark>
      <Placemark>
        <name>Miguel Hidalgo</name>
        <description>17.05827306 -96.71265833</description>
        <styleUrl>#icon-1532-0288D1</styleUrl>
        <Point>
          <coordinates>
            -96.712658,17.058273,0
          </coordinates>
        </Point>
      </Placemark>
      <Placemark>
        <name>Prolongación Calzada de la República</name>
        <description>17.05967559 -96.71310343</description>
        <styleUrl>#icon-1532-0288D1</styleUrl>
        <Point>
          <coordinates>
            -96.713103,17.059676,0
          </coordinates>
        </Point>
      </Placemark>
      <Placemark>
        <name>Panteón General</name>
        <description>17.06276886 -96.71399869</description>
        <styleUrl>#icon-1532-0288D1</styleUrl>
        <Point>
          <coordinates>
            -96.713999,17.062769,0
          </coordinates>
        </Point>
      </Placemark>
      <Placemark>
        <name>Esc. Sec. Tec. N°6</name>
        <description>17.0663113 -96.7141341</description>
        <styleUrl>#icon-1532-0288D1</styleUrl>
        <Point>
          <coordinates>
            -96.714134,17.066311,0
          </coordinates>
        </Point>
      </Placemark>
      <Placemark>
        <name>Priv. Alianza</name>
        <description>17.06797627 -96.71383256</description>
        <styleUrl>#icon-1532-0288D1</styleUrl>
        <Point>
          <coordinates>
            -96.713833,17.067976,0
          </coordinates>
        </Point>
      </Placemark>
      <Placemark>
        <name>Heroico Colegio Militar</name>
        <description>17.07103821 -96.7134353</description>
        <styleUrl>#icon-1532-0288D1</styleUrl>
        <Point>
          <coordinates>
            -96.713435,17.071038,0
          </coordinates>
        </Point>
      </Placemark>
      <Placemark>
        <name>Almendros</name>
        <description>17.07274482 -96.7132091</description>
        <styleUrl>#icon-1532-0288D1</styleUrl>
        <Point>
          <coordinates>
            -96.713209,17.072745,0
          </coordinates>
        </Point>
      </Placemark>
      <Placemark>
        <name>Belisario Dominguez</name>
        <description>17.07485836 -96.71295971</description>
        <styleUrl>#icon-1532-0288D1</styleUrl>
        <Point>
          <coordinates>
            -96.71296,17.074858,0
          </coordinates>
        </Point>
      </Placemark>
      <Placemark>
        <name>Sabinos</name>
        <description>17.07694372 -96.71261889</description>
        <styleUrl>#icon-1532-0288D1</styleUrl>
        <Point>
          <coordinates>
            -96.712619,17.076944,0
          </coordinates>
        </Point>
      </Placemark>
      <Placemark>
        <name>Av. Fuerza Aérea Mexicana</name>
        <description>17.080284 -96.712158</description>
        <styleUrl>#icon-1532-0288D1</styleUrl>
        <Point>
          <coordinates>
            -96.712158,17.080284,0
          </coordinates>
        </Point>
      </Placemark>
      <Placemark>
        <name>Estebán Baca Calderón</name>
        <description>17.083059 -96.711826</description>
        <styleUrl>#icon-1532-0288D1</styleUrl>
        <Point>
          <coordinates>
            -96.711826,17.083059,0
          </coordinates>
        </Point>
      </Placemark>
      <Placemark>
        <name>Módulo Azul</name>
        <description>17.08593617 -96.71149728</description>
        <styleUrl>#icon-1532-DB4436</styleUrl>
        <Point>
          <coordinates>
            -96.711497,17.085936,0
          </coordinates>
        </Point>
      </Placemark>
    </Folder>
    <Folder>
      <name>REGRESO PARADAS</name>
      <Placemark>
        <name>Regreso</name>
        <styleUrl>#line-7CB342-4000-nodesc</styleUrl>
        <LineString>
          <tessellate>1</tessellate>
          <coordinates>
            -96.71156,17.085924,0
            -96.711751,17.086242,0
            -96.711799,17.086416,0
            -96.711879,17.086461,0
            -96.71197,17.086491,0
            -96.712142,17.086457,0
            -96.71249,17.08655,0
            -96.713209,17.086814,0
            -96.713743,17.087122,0
            -96.714379,17.087462,0
            -96.714896,17.087729,0
            -96.716192,17.088483,0
            -96.71657,17.088696,0
            -96.716905,17.088888,0
            -96.717045,17.089057,0
            -96.717257,17.089085,0
            -96.71731,17.088957,0
            -96.71742,17.088496,0
            -96.71778,17.087352,0
            -96.718072,17.086498,0
            -96.71822,17.08614,0
            -96.718456,17.085306,0
            -96.718775,17.084317,0
            -96.719016,17.083619,0
            -96.719065,17.083476,0
            -96.719207,17.083245,0
            -96.719121,17.082719,0
            -96.719126,17.082353,0
            -96.719067,17.082084,0
            -96.718904,17.081909,0
            -96.718944,17.081573,0
            -96.719043,17.080963,0
            -96.719212,17.079468,0
            -96.719266,17.079253,0
            -96.719373,17.079071,0
            -96.719384,17.078958,0
            -96.719295,17.078894,0
            -96.7194,17.077832,0
            -96.719531,17.076802,0
            -96.71959,17.076502,0
            -96.719649,17.075763,0
            -96.719667,17.075224,0
            -96.719491,17.074735,0
            -96.719538,17.074604,0
            -96.71955,17.074453,0
            -96.719432,17.07431,0
            -96.719515,17.073261,0
            -96.719572,17.072338,0
            -96.719637,17.071639,0
            -96.718813,17.071482,0
            -96.718067,17.07131,0
            -96.717667,17.071088,0
            -96.717182,17.070984,0
            -96.716659,17.070858,0
            -96.715796,17.070605,0
            -96.714652,17.070444,0
            -96.7137,17.070361,0
            -96.713789,17.069556,0
            -96.713872,17.068969,0
            -96.713942,17.068205,0
            -96.714135,17.066946,0
            -96.714293,17.065592,0
            -96.714379,17.065405,0
            -96.71432,17.065153,0
            -96.714245,17.064284,0
            -96.714105,17.062018,0
            -96.714038,17.061443,0
            -96.714014,17.061274,0
            -96.713625,17.060333,0
            -96.713038,17.058822,0
            -96.71289,17.058443,0
            -96.712965,17.057225,0
            -96.71303,17.056602,0
            -96.713081,17.056271,0
            -96.713249,17.054702,0
            -96.713266,17.054445,0
            -96.713148,17.054022,0
            -96.713097,17.053622,0
            -96.713188,17.052776,0
            -96.7133,17.052122,0
            -96.713574,17.050389,0
            -96.713842,17.04866,0
            -96.713899,17.048324,0
            -96.714003,17.04764,0
            -96.714231,17.046029,0
            -96.714448,17.044827,0
            -96.7145,17.044293,0
            -96.71451,17.043914,0
            -96.714373,17.043537,0
            -96.713966,17.042972,0
            -96.713193,17.041929,0
            -96.712743,17.041431,0
            -96.711729,17.040131,0
            -96.710959,17.039105,0
            -96.71086,17.038892,0
            -96.71079,17.03861,0
            -96.710782,17.03828,0
            -96.710911,17.037869,0
            -96.711109,17.037554,0
            -96.711844,17.036502,0
            -96.712437,17.035672,0
            -96.713038,17.034835,0
            -96.71319,17.034443,0
            -96.713646,17.033807,0
            -96.713773,17.033504,0
            -96.713816,17.033217,0
            -96.713373,17.032568,0
            -96.71289,17.031899,0
            -96.712303,17.031045,0
            -96.711184,17.029488,0
            -96.710723,17.028901,0
            -96.710626,17.028783,0
            -96.710482,17.028662,0
            -96.710157,17.028173,0
            -96.709926,17.027719,0
            -96.709712,17.027039,0
            -96.709631,17.026454,0
            -96.709722,17.025818,0
            -96.71005,17.02449,0
            -96.710578,17.022233,0
            -96.710913,17.020804,0
            -96.711249,17.019294,0
            -96.711517,17.018155,0
            -96.711686,17.017396,0
            -96.711911,17.016344,0
            -96.71215,17.015354,0
            -96.712324,17.014385,0
            -96.712517,17.013574,0
            -96.712694,17.012469,0
            -96.712799,17.010904,0
            -96.712861,17.008688,0
            -96.712949,17.006157,0
            -96.713035,17.004251,0
            -96.71307,17.00312,0
            -96.713115,17.002871,0
            -96.713282,17.002381,0
            -96.713317,17.00226,0
            -96.713494,17.00207,0
            -96.713757,17.001861,0
            -96.713998,17.001714,0
            -96.714145,17.001649,0
            -96.714386,17.001573,0
            -96.714685,17.001519,0
            -96.715364,17.001482,0
            -96.716218,17.001442,0
            -96.716676,17.001422,0
            -96.716952,17.001416,0
            -96.717437,17.00138,0
            -96.717518,17.001391,0
            -96.718368,17.001346,0
            -96.718397,17.001343,0
            -96.718402,17.001178,0
            -96.718434,17.001023,0
            -96.718511,17.000774,0
            -96.718618,17.000406,0
            -96.718698,17.00013,0
            -96.718827,16.999716,0
            -96.718954,16.999257,0
            -96.719075,16.998855,0
            -96.719181,16.998461,0
            -96.719321,16.998005,0
            -96.719455,16.997536,0
            -96.719531,16.997278,0
            -96.719653,16.996856,0
            -96.719772,16.996407,0
            -96.719888,16.996025,0
            -96.720254,16.99481,0
            -96.720364,16.994437,0
            -96.720409,16.994349,0
            -96.720487,16.994208,0
            -96.720834,16.993954,0
            -96.720901,16.993874,0
            -96.721111,16.993547,0
            -96.721181,16.993404,0
            -96.721391,16.993071,0
            -96.721516,16.992868,0
            -96.721764,16.992544,0
            -96.72204,16.992221,0
            -96.722372,16.991825,0
            -96.722605,16.991523,0
            -96.722693,16.991369,0
            -96.722741,16.991242,0
            -96.722736,16.990785,0
            -96.722889,16.990246,0
            -96.723043,16.989682,0
            -96.723185,16.989092,0
            -96.723376,16.988285,0
            -96.723466,16.987862,0
            -96.723676,16.986898,0
            -96.723741,16.986637,0
            -96.72384,16.986258,0
            -96.723891,16.986031,0
            -96.723987,16.985638,0
            -96.72406,16.985355,0
            -96.724142,16.98501,0
            -96.724207,16.984761,0
            -96.724284,16.984433,0
            -96.72441,16.983938,0
            -96.724508,16.983548,0
            -96.72462,16.983092,0
            -96.724766,16.982486,0
            -96.724946,16.981762,0
            -96.72506,16.981291,0
            -96.725252,16.980481,0
            -96.725295,16.980297,0
            -96.725365,16.979976,0
            -96.725476,16.979544,0
            -96.725507,16.97945,0
            -96.725679,16.978897,0
            -96.725786,16.978479,0
            -96.725886,16.97812,0
            -96.726018,16.977631,0
            -96.726192,16.977072,0
            -96.726252,16.976898,0
          </coordinates>
        </LineString>
      </Placemark>
      <Placemark>
        <name>Módulo Azul</name>
        <description>17.08593617 -96.71149728</description>
        <styleUrl>#icon-1532-7CB342</styleUrl>
        <Point>
          <coordinates>
            -96.711497,17.085936,0
          </coordinates>
        </Point>
      </Placemark>
      <Placemark>
        <name>Av. de las Etnias</name>
        <description>17.08734 -96.71405</description>
        <styleUrl>#icon-1532-7CB342</styleUrl>
        <Point>
          <coordinates>
            -96.71405,17.08734,0
          </coordinates>
        </Point>
      </Placemark>
      <Placemark>
        <name>Florencia</name>
        <description>17.08854 -96.71746</description>
        <styleUrl>#icon-1532-7CB342</styleUrl>
        <Point>
          <coordinates>
            -96.71746,17.08854,0
          </coordinates>
        </Point>
      </Placemark>
      <Placemark>
        <name>CBTis 26 Contrafrente</name>
        <description>17.08573 -96.71837</description>
        <styleUrl>#icon-1532-7CB342</styleUrl>
        <Point>
          <coordinates>
            -96.71837,17.08573,0
          </coordinates>
        </Point>
      </Placemark>
      <Placemark>
        <name>Fuente de las 8 Regiones</name>
        <description>17.08223 -96.71916</description>
        <styleUrl>#icon-1532-7CB342</styleUrl>
        <Point>
          <coordinates>
            -96.71916,17.08223,0
          </coordinates>
        </Point>
      </Placemark>
      <Placemark>
        <name>Heroica Escuela Naval Militar</name>
        <description>17.07944 -96.71926</description>
        <styleUrl>#icon-1532-7CB342</styleUrl>
        <Point>
          <coordinates>
            -96.71926,17.07944,0
          </coordinates>
        </Point>
      </Placemark>
      <Placemark>
        <name>ADO</name>
        <description>17.070778 -96.716503</description>
        <styleUrl>#icon-1532-7CB342</styleUrl>
        <Point>
          <coordinates>
            -96.716503,17.070778,0
          </coordinates>
        </Point>
      </Placemark>
      <Placemark>
        <name>Preparatoria 2</name>
        <description>17.0683676 -96.71403963</description>
        <styleUrl>#icon-1532-7CB342</styleUrl>
        <Point>
          <coordinates>
            -96.71404,17.068368,0
          </coordinates>
        </Point>
      </Placemark>
      <Placemark>
        <name>ISSSTE</name>
        <description>17.0664606 -96.7141972</description>
        <styleUrl>#icon-1532-7CB342</styleUrl>
        <Point>
          <coordinates>
            -96.714197,17.066461,0
          </coordinates>
        </Point>
      </Placemark>
      <Placemark>
        <name>Panteón General</name>
        <description>17.0632289 -96.7142196</description>
        <styleUrl>#icon-1532-7CB342</styleUrl>
        <Point>
          <coordinates>
            -96.71422,17.063229,0
          </coordinates>
        </Point>
      </Placemark>
      <Placemark>
        <name>Puente de conalep</name>
        <description>17.06001815 -96.7135486</description>
        <styleUrl>#icon-1532-7CB342</styleUrl>
        <Point>
          <coordinates>
            -96.713549,17.060018,0
          </coordinates>
        </Point>
      </Placemark>
      <Placemark>
        <name>Vicente Guerrero</name>
        <description>17.05770056 -96.71299482</description>
        <styleUrl>#icon-1532-7CB342</styleUrl>
        <Point>
          <coordinates>
            -96.712995,17.057701,0
          </coordinates>
        </Point>
      </Placemark>
      <Placemark>
        <name>Rayón</name>
        <description>17.0558973 -96.7131022</description>
        <styleUrl>#icon-1532-7CB342</styleUrl>
        <Point>
          <coordinates>
            -96.713102,17.055897,0
          </coordinates>
        </Point>
      </Placemark>
      <Placemark>
        <name>Universidad</name>
        <description>17.0534066,-96.7131658</description>
        <styleUrl>#icon-1532-7CB342</styleUrl>
        <Point>
          <coordinates>
            -96.713166,17.053407,0
          </coordinates>
        </Point>
      </Placemark>
      <Placemark>
        <name>Rectoria CU</name>
        <description>17.05033 -96.71357</description>
        <styleUrl>#icon-1532-7CB342</styleUrl>
        <Point>
          <coordinates>
            -96.71357,17.05033,0
          </coordinates>
        </Point>
      </Placemark>
      <Placemark>
        <name>Facultad de Enfermería CU</name>
        <description>17.04866 -96.71391</description>
        <styleUrl>#icon-1532-7CB342</styleUrl>
        <Point>
          <coordinates>
            -96.71391,17.04866,0
          </coordinates>
        </Point>
      </Placemark>
      <Placemark>
        <name>GYM Universitario</name>
        <description>17.047 -96.71415</description>
        <styleUrl>#icon-1532-7CB342</styleUrl>
        <Point>
          <coordinates>
            -96.71415,17.047,0
          </coordinates>
        </Point>
      </Placemark>
      <Placemark>
        <name>Plaza Oaxaca</name>
        <description>17.04367 -96.71448</description>
        <styleUrl>#icon-1532-7CB342</styleUrl>
        <Point>
          <coordinates>
            -96.71448,17.04367,0
          </coordinates>
        </Point>
      </Placemark>
      <Placemark>
        <name>Plaza del Valle</name>
        <description>17.04037 -96.71199</description>
        <styleUrl>#icon-1532-7CB342</styleUrl>
        <Point>
          <coordinates>
            -96.71199,17.04037,0
          </coordinates>
        </Point>
      </Placemark>
      <Placemark>
        <name>Faisan</name>
        <description>17.03701 -96.71158</description>
        <styleUrl>#icon-1532-7CB342</styleUrl>
        <Point>
          <coordinates>
            -96.71158,17.03701,0
          </coordinates>
        </Point>
      </Placemark>
      <Placemark>
        <name>Fresnito</name>
        <description>17.03571 -96.71243</description>
        <styleUrl>#icon-1532-7CB342</styleUrl>
        <Point>
          <coordinates>
            -96.71243,17.03571,0
          </coordinates>
        </Point>
      </Placemark>
      <Placemark>
        <name>Base Símbolos Patrios</name>
        <description>17.03175 -96.71283</description>
        <styleUrl>#icon-1532-7CB342</styleUrl>
        <Point>
          <coordinates>
            -96.71283,17.03175,0
          </coordinates>
        </Point>
      </Placemark>
      <Placemark>
        <name>Pinos</name>
        <description>17.0298222 -96.7113666</description>
        <styleUrl>#icon-1532-7CB342</styleUrl>
        <Point>
          <coordinates>
            -96.711367,17.029822,0
          </coordinates>
        </Point>
      </Placemark>
      <Placemark>
        <name>Jazmines</name>
        <description>17.0273997 -96.7098018</description>
        <styleUrl>#icon-1532-7CB342</styleUrl>
        <Point>
          <coordinates>
            -96.709802,17.0274,0
          </coordinates>
        </Point>
      </Placemark>
      <Placemark>
        <name>Crucero de la Experimental</name>
        <description>17.0255559 -96.709792</description>
        <styleUrl>#icon-1532-7CB342</styleUrl>
        <Point>
          <coordinates>
            -96.709792,17.025556,0
          </coordinates>
        </Point>
      </Placemark>
      <Placemark>
        <name>Puente de Conalep</name>
        <description>17.0212525 -96.7108107</description>
        <styleUrl>#icon-1532-7CB342</styleUrl>
        <Point>
          <coordinates>
            -96.710811,17.021252,0
          </coordinates>
        </Point>
      </Placemark>
      <Placemark>
        <name>Eucaliptos</name>
        <description>17.0189744 -96.7113462</description>
        <styleUrl>#icon-1532-7CB342</styleUrl>
        <Point>
          <coordinates>
            -96.711346,17.018974,0
          </coordinates>
        </Point>
      </Placemark>
      <Placemark>
        <name>Crucero al Tequio</name>
        <description>17.0153233 -96.7121263</description>
        <styleUrl>#icon-1532-7CB342</styleUrl>
        <Point>
          <coordinates>
            -96.712126,17.015323,0
          </coordinates>
        </Point>
      </Placemark>
      <Placemark>
        <name>Porfirio Diaz</name>
        <description>17.012063 -96.712776</description>
        <styleUrl>#icon-1532-7CB342</styleUrl>
        <Point>
          <coordinates>
            -96.712776,17.012063,0
          </coordinates>
        </Point>
      </Placemark>
      <Placemark>
        <name>Vega</name>
        <description>17.0098235 -96.7128098</description>
        <styleUrl>#icon-1532-7CB342</styleUrl>
        <Point>
          <coordinates>
            -96.71281,17.009824,0
          </coordinates>
        </Point>
      </Placemark>
      <Placemark>
        <name>Infonavit</name>
        <description>17.0062206 -96.7129716</description>
        <styleUrl>#icon-1532-7CB342</styleUrl>
        <Point>
          <coordinates>
            -96.712972,17.006221,0
          </coordinates>
        </Point>
      </Placemark>
      <Placemark>
        <name>Crucero del Aeropuerto</name>
        <description>17.0035001 -96.7130184</description>
        <styleUrl>#icon-1532-7CB342</styleUrl>
        <Point>
          <coordinates>
            -96.713018,17.0035,0
          </coordinates>
        </Point>
      </Placemark>
      <Placemark>
        <name>Aeropuerto</name>
        <description>17.0009486,-96.7184756</description>
        <styleUrl>#icon-1532-7CB342</styleUrl>
        <Point>
          <coordinates>
            -96.718476,17.000949,0
          </coordinates>
        </Point>
      </Placemark>
      <Placemark>
        <name>Escuela Oficial Rayados Oaxaca</name>
        <description>16.9996635,-96.7188504</description>
        <styleUrl>#icon-1532-7CB342</styleUrl>
        <Point>
          <coordinates>
            -96.71885,16.999664,0
          </coordinates>
        </Point>
      </Placemark>
      <Placemark>
        <name>Unidad Deportiva el Tequio</name>
        <description>16.9975081,-96.7194863</description>
        <styleUrl>#icon-1532-7CB342</styleUrl>
        <Point>
          <coordinates>
            -96.719486,16.997508,0
          </coordinates>
        </Point>
      </Placemark>
      <Placemark>
        <name>Unidad Deportiva el Tequio 2</name>
        <description>16.9947353,-96.7202963</description>
        <styleUrl>#icon-1532-7CB342</styleUrl>
        <Point>
          <coordinates>
            -96.720296,16.994735,0
          </coordinates>
        </Point>
      </Placemark>
      <Placemark>
        <name>Benito Juárez</name>
        <description>16.9911847,-96.722744</description>
        <styleUrl>#icon-1532-7CB342</styleUrl>
        <Point>
          <coordinates>
            -96.722744,16.991185,0
          </coordinates>
        </Point>
      </Placemark>
      <Placemark>
        <name>Golfo de México</name>
        <description>16.9880103,-96.7234367</description>
        <styleUrl>#icon-1532-7CB342</styleUrl>
        <Point>
          <coordinates>
            -96.723437,16.98801,0
          </coordinates>
        </Point>
      </Placemark>
      <Placemark>
        <name>5 de Mayo</name>
        <description>16.9840685,-96.7243896</description>
        <styleUrl>#icon-1532-7CB342</styleUrl>
        <Point>
          <coordinates>
            -96.72439,16.984068,0
          </coordinates>
        </Point>
      </Placemark>
      <Placemark>
        <name>Av. Francisco I. Madero</name>
        <description>16.9810943,-96.7250932</description>
        <styleUrl>#icon-1532-7CB342</styleUrl>
        <Point>
          <coordinates>
            -96.725093,16.981094,0
          </coordinates>
        </Point>
      </Placemark>
      <Placemark>
        <name>Base la Raya</name>
        <description>16.9768857,-96.7262353</description>
        <styleUrl>#icon-1532-7CB342</styleUrl>
        <Point>
          <coordinates>
            -96.726278,16.976906,0
          </coordinates>
        </Point>
      </Placemark>
      <Placemark>
        <name>Av. Belisario Dominguez</name>
        <description>17.07618 -96.71967</description>
        <styleUrl>#icon-1532-7CB342</styleUrl>
        <Point>
          <coordinates>
            -96.71967,17.07618,0
          </coordinates>
        </Point>
      </Placemark>
    </Folder>
  </Document>
</kml>
